{"type":"FeatureCollection","features":[{"type":"Feature","geometry":{"coordinates":[[-123.10695599926756,49.21593937732548],[-123.10789838906216,49.215966359274226],[-123.1098413996436,49.2159799548869]],"type":"LineString"},"properties":{"hblock":"0-100 W 60TH AV","streetuse":"Residential","geo_point_2d":{"lon":-123.10839857721368,"lat":49.2159665289189}}},{"type":"Feature","geometry":{"coordinates":[[-123.03204898383404,49.22842654214593],[-123.03206359281542,49.22810058587842]],"type":"LineString"},"properties":{"hblock":"6100-6200 TYNE ST","streetuse":"Residential","geo_point_2d":{"lon":-123.03205628832471,"lat":49.228263564012174}}},{"type":"Feature","geometry":{"coordinates":[[-123.0547331029244,49.225367215593074],[-123.05475048604428,49.224816526252496]],"type":"LineString"},"properties":{"hblock":"6400 ELLIOTT ST","streetuse":"Collector","geo_point_2d":{"lon":-123.05474179448434,"lat":49.22509187092278}}},{"type":"Feature","geometry":{"coordinates":[[-123.02785898506708,49.226395311408524],[-123.02786575846437,49.22581340623964]],"type":"LineString"},"properties":{"hblock":"6300 ARLINGTON ST","streetuse":"Residential","geo_point_2d":{"lon":-123.02786237176574,"lat":49.22610435882408}}},{"type":"Feature","geometry":{"coordinates":[[-123.03873670960401,49.226428867597775],[-123.03874671293406,49.22622417704794]],"type":"LineString"},"properties":{"hblock":"6300 MCKINNON ST","streetuse":"Residential","geo_point_2d":{"lon":-123.03874171126904,"lat":49.22632652232286}}},{"type":"Feature","geometry":{"coordinates":[[-123.07742695633577,49.22001054039562],[-123.07737861263054,49.21989285164864],[-123.077368519932,49.219875695427405],[-123.07721200542836,49.21957256048337]],"type":"LineString"},"properties":{"hblock":"7000 KNIGHT ST","streetuse":"Arterial","geo_point_2d":{"lon":-123.07732297754531,"lat":49.21978995206666}}},{"type":"Feature","geometry":{"coordinates":[[-123.13958801560999,49.234330369619734],[-123.14052428178466,49.2343449312358]],"type":"LineString"},"properties":{"hblock":"1500 W 41ST AV","streetuse":"Arterial","geo_point_2d":{"lon":-123.14005614869733,"lat":49.23433765042777}}},{"type":"Feature","geometry":{"coordinates":[[-123.06580665625658,49.222615893825584],[-123.06581739903774,49.22223582859337]],"type":"LineString"},"properties":{"hblock":"6700 VICTORIA DRIVE","streetuse":"Secondary Arterial","geo_point_2d":{"lon":-123.06581202764715,"lat":49.22242586120947}}},{"type":"Feature","geometry":{"coordinates":[[-123.10399678515644,49.219342150546076],[-123.10251831029238,49.21931091825437]],"type":"LineString"},"properties":{"hblock":"100 E 56TH AV","streetuse":"Residential","geo_point_2d":{"lon":-123.10325754772443,"lat":49.219326534400224}}},{"type":"Feature","geometry":{"coordinates":[[-123.10608109184956,49.2220552175677],[-123.10544612573479,49.22204101070578]],"type":"LineString"},"properties":{"hblock":"0 E 53RD AV","streetuse":"Residential","geo_point_2d":{"lon":-123.10576360879219,"lat":49.22204811413675}}},{"type":"Feature","geometry":{"coordinates":[[-123.10455957359157,49.22202207195863],[-123.1039244717674,49.22200822566149]],"type":"LineString"},"properties":{"hblock":"0 E 53RD AV","streetuse":"Residential","geo_point_2d":{"lon":-123.1042420226795,"lat":49.22201514881005}}},{"type":"Feature","geometry":{"coordinates":[[-123.16806296457048,49.23898449359814],[-123.16807331810617,49.2385094214837]],"type":"LineString"},"properties":{"hblock":"5200 MACDONALD ST","streetuse":"Residential","geo_point_2d":{"lon":-123.16806814133832,"lat":49.23874695754092}}},{"type":"Feature","geometry":{"coordinates":[[-123.17303414645814,49.23757963477753],[-123.17580213425036,49.237590414787746]],"type":"LineString"},"properties":{"hblock":"3000-3100 W 38TH AV","streetuse":"Residential","geo_point_2d":{"lon":-123.17441814035423,"lat":49.23758502478264}}},{"type":"Feature","geometry":{"coordinates":[[-123.1767241509126,49.23664409282625],[-123.17673770123805,49.2351748773733]],"type":"LineString"},"properties":{"hblock":"5500-5600 BALACLAVA ST","streetuse":"Residential","geo_point_2d":{"lon":-123.17673092607534,"lat":49.235909485099775}}},{"type":"Feature","geometry":{"coordinates":[[-123.0916346193063,49.21826751862121],[-123.09095311706714,49.21825548183993]],"type":"LineString"},"properties":{"hblock":"500-600 E 57TH AV","streetuse":"Collector","geo_point_2d":{"lon":-123.09129386818672,"lat":49.21826150023057}}},{"type":"Feature","geometry":{"coordinates":[[-123.06947864280568,49.218681028724816],[-123.06916141175158,49.21828415865007]],"type":"LineString"},"properties":{"hblock":"7200 BRAEBURN ST","streetuse":"Residential","geo_point_2d":{"lon":-123.06932002727864,"lat":49.21848259368744}}},{"type":"Feature","geometry":{"coordinates":[[-123.07099573766513,49.21809170730244],[-123.07090944217278,49.21815635538484],[-123.07082142853933,49.21822001497508],[-123.07073175162732,49.21828264105931],[-123.07064041144888,49.21834424262895],[-123.0705474491613,49.21840479266911],[-123.07045287845824,49.21846426418177],[-123.07035672680429,49.21852265714625],[-123.07025904907758,49.21857993554416],[-123.07015985898609,49.2186360813728],[-123.07005918399574,49.218691094611636],[-123.06995706526693,49.21874494824606],[-123.06985351650889,49.21879762427347],[-123.06974859262789,49.21884910466632],[-123.06965023937965,49.21889568757228]],"type":"LineString"},"properties":{"hblock":"1700 ARGYLE DRIVE","streetuse":"Collector","geo_point_2d":{"lon":-123.07033738156927,"lat":49.21851767691199}}},{"type":"Feature","geometry":{"coordinates":[[-123.07721200542836,49.21957256048337],[-123.07712342637176,49.219401637490385],[-123.0771110620082,49.21938061479402],[-123.0770541732667,49.21924210754246],[-123.07701970477508,49.219100463952586],[-123.07700801578927,49.21895723099197],[-123.07702523701053,49.21812722544626]],"type":"LineString"},"properties":{"hblock":"7100-7200 KNIGHT ST","streetuse":"Arterial","geo_point_2d":{"lon":-123.07704622011879,"lat":49.21886477468332}}},{"type":"Feature","geometry":{"coordinates":[[-123.07626369342111,49.21812214467525],[-123.07550107938033,49.218117383413215]],"type":"LineString"},"properties":{"hblock":"1400 E 57TH AV","streetuse":"Collector","geo_point_2d":{"lon":-123.07588238640072,"lat":49.21811976404423}}},{"type":"Feature","geometry":{"coordinates":[[-123.08293744581877,49.222265760889094],[-123.08295087253117,49.2218775513721]],"type":"LineString"},"properties":{"hblock":"6800 ROSS ST","streetuse":"Residential","geo_point_2d":{"lon":-123.08294415917497,"lat":49.222071656130595}}},{"type":"Feature","geometry":{"coordinates":[[-123.08018244038358,49.2218341340529],[-123.0794936862849,49.22182472428204]],"type":"LineString"},"properties":{"hblock":"1300 E 53RD AV","streetuse":"Residential","geo_point_2d":{"lon":-123.07983806333425,"lat":49.22182942916748}}},{"type":"Feature","geometry":{"coordinates":[[-123.08527470513161,49.260589421051684],[-123.08333992510079,49.26057366098124]],"type":"LineString"},"properties":{"hblock":"900 E 11TH AV","streetuse":"Residential","geo_point_2d":{"lon":-123.0843073151162,"lat":49.260581541016464}}},{"type":"Feature","geometry":{"coordinates":[[-123.1348283561057,49.234182653681046],[-123.13562515274354,49.234207609317174]],"type":"LineString"},"properties":{"hblock":"1300 W 41ST AV","streetuse":"Arterial","geo_point_2d":{"lon":-123.13522675442462,"lat":49.234195131499106}}},{"type":"Feature","geometry":{"coordinates":[[-123.11936236404776,49.23414656105355],[-123.11937970609937,49.23365340537074]],"type":"LineString"},"properties":{"hblock":"5500-5600 MANSON ST","streetuse":"Residential","geo_point_2d":{"lon":-123.11937103507356,"lat":49.23389998321214}}},{"type":"Feature","geometry":{"coordinates":[[-123.1281067300811,49.233000986562416],[-123.12890083154029,49.23302816841771]],"type":"LineString"},"properties":{"hblock":"1000-1100 W 42ND AV","streetuse":"Residential","geo_point_2d":{"lon":-123.12850378081069,"lat":49.23301457749007}}},{"type":"Feature","geometry":{"coordinates":[[-123.12893167562812,49.23212283348298],[-123.1319023591396,49.232224445395005]],"type":"LineString"},"properties":{"hblock":"1000-1100 W 43RD AV","streetuse":"Residential","geo_point_2d":{"lon":-123.13041701738386,"lat":49.232173639439}}},{"type":"Feature","geometry":{"coordinates":[[-123.05922139019587,49.22257384259253],[-123.05773030614998,49.222563794085744]],"type":"LineString"},"properties":{"hblock":"2300 E 51ST AV","streetuse":"Residential","geo_point_2d":{"lon":-123.05847584817292,"lat":49.22256881833914}}},{"type":"Feature","geometry":{"coordinates":[[-123.0320993863701,49.23280827004874],[-123.03250631337846,49.23240423344601]],"type":"LineString"},"properties":{"hblock":"5600 STAMFORD ST","streetuse":"Residential","geo_point_2d":{"lon":-123.03230284987427,"lat":49.23260625174738}}},{"type":"Feature","geometry":{"coordinates":[[-123.02364155652491,49.23535228726206],[-123.02364226785637,49.234914308472575]],"type":"LineString"},"properties":{"hblock":"5300 BOUNDARY ROAD","streetuse":"Arterial","geo_point_2d":{"lon":-123.02364191219064,"lat":49.23513329786732}}},{"type":"Feature","geometry":{"coordinates":[[-123.02508324516859,49.21744523195912],[-123.02508195935575,49.21674949256718]],"type":"LineString"},"properties":{"hblock":"7400-7600 MATHESON CRESCENT","streetuse":"Residential","geo_point_2d":{"lon":-123.02508260226215,"lat":49.21709736226315}}},{"type":"Feature","geometry":{"coordinates":[[-123.17784239201862,49.25544610228433],[-123.17753294201285,49.25519717664955],[-123.1771437461481,49.254943614000645],[-123.17697969815912,49.25485707049722],[-123.17696551756454,49.254849761111245],[-123.1769552188435,49.25484428979891],[-123.17694284178532,49.25483790415584],[-123.17693078160276,49.25483174290677],[-123.17691839141959,49.25482552819042],[-123.17690641453157,49.254819600687064],[-123.17689399741668,49.254813538928126],[-123.17688126401133,49.254807414685516],[-123.17686853125194,49.254801470345],[-123.17685655572545,49.25479592063377],[-123.17685549581576,49.254795427518914],[-123.17684328648362,49.25478982419286],[-123.17683059618061,49.25478422160165],[-123.17681831856122,49.254778735315384],[-123.17680485783886,49.254772891029376],[-123.17678603018432,49.25476495007175],[-123.17677903863031,49.254762001341035],[-123.17676606075344,49.25475667803466],[-123.17675302797522,49.25475137280127],[-123.17673972042218,49.25474608597721],[-123.1767263579036,49.25474079923567],[-123.17671299619066,49.254735737371966],[-123.17670597809212,49.25473304953889]],"type":"LineString"},"properties":{"hblock":"3400-3500 QUESNEL DRIVE","streetuse":"Collector","geo_point_2d":{"lon":-123.17729295229958,"lat":49.25505893393145}}},{"type":"Feature","geometry":{"coordinates":[[-123.14601736255405,49.256688564384994],[-123.14603354029671,49.256228276562815]],"type":"LineString"},"properties":{"hblock":"3200 BURRARD ST","streetuse":"Residential","geo_point_2d":{"lon":-123.14602545142537,"lat":49.256458420473905}}},{"type":"Feature","geometry":{"coordinates":[[-123.16483342376678,49.25951237934516],[-123.16483977975494,49.259328634000674]],"type":"LineString"},"properties":{"hblock":"3000 TRAFALGAR ST","streetuse":"Residential","geo_point_2d":{"lon":-123.16483660176085,"lat":49.25942050667292}}},{"type":"Feature","geometry":{"coordinates":[[-123.137846046695,49.26358692070962],[-123.13855766392783,49.263597934200135]],"type":"LineString"},"properties":{"hblock":"1400 W BROADWAY","streetuse":"Arterial","geo_point_2d":{"lon":-123.13820185531142,"lat":49.263592427454874}}},{"type":"Feature","geometry":{"coordinates":[[-123.13607891478772,49.2640367609068],[-123.13609687250835,49.263559553012044]],"type":"LineString"},"properties":{"hblock":"2400 HEMLOCK ST","streetuse":"Secondary Arterial","geo_point_2d":{"lon":-123.13608789364804,"lat":49.263798156959425}}},{"type":"Feature","geometry":{"coordinates":[[-123.14085837966893,49.26794013277903],[-123.14087369593958,49.267521297535545]],"type":"LineString"},"properties":{"hblock":"2000 FIR ST","streetuse":"Secondary Arterial","geo_point_2d":{"lon":-123.14086603780424,"lat":49.267730715157285}}},{"type":"Feature","geometry":{"coordinates":[[-123.14335444698587,49.264586979159866],[-123.14337033155613,49.264153696326716]],"type":"LineString"},"properties":{"hblock":"2400 PINE ST","streetuse":"Residential","geo_point_2d":{"lon":-123.143362389271,"lat":49.26437033774329}}},{"type":"Feature","geometry":{"coordinates":[[-123.16967932388724,49.22733348876587],[-123.17028284373235,49.22734022869275]],"type":"LineString"},"properties":{"hblock":"2800-2900 W 49TH AV","streetuse":"Secondary Arterial","geo_point_2d":{"lon":-123.16998108380982,"lat":49.227336858729316}}},{"type":"Feature","geometry":{"coordinates":[[-123.17299991616704,49.22339187381065],[-123.17306432543576,49.221401734832405]],"type":"LineString"},"properties":{"hblock":"6900-7000 CARNARVON ST","streetuse":"Residential","geo_point_2d":{"lon":-123.1730321208014,"lat":49.22239680432153}}},{"type":"Feature","geometry":{"coordinates":[[-123.16381882459883,49.22570414405871],[-123.16397633076325,49.225709317747615],[-123.16416242235371,49.225728348291995],[-123.16434444948841,49.22576001367585],[-123.16452043342758,49.22580396592091],[-123.16468843619528,49.225859731068255],[-123.1648466154198,49.22592668211278],[-123.16499323827239,49.226004101948014],[-123.16512672251693,49.226091138328876],[-123.16524556792686,49.226186830952855],[-123.16533866719128,49.22627995167852],[-123.16539210764704,49.22633356792961],[-123.16545927034043,49.22638765024601],[-123.16553468485158,49.22643682727306],[-123.16561755285174,49.22648057841379],[-123.1657069387786,49.22651841924988],[-123.16580189353512,49.22654992835099],[-123.16590134467674,49.22657476542355],[-123.16600420622686,49.22659265316331],[-123.16610936503481,49.22660340426129],[-123.16619535160865,49.22660623103206],[-123.16785892008399,49.22662473967453]],"type":"LineString"},"properties":{"hblock":"2600-2700 W 50TH AV","streetuse":"Residential","geo_point_2d":{"lon":-123.16580425182428,"lat":49.22630747969916}}},{"type":"Feature","geometry":{"coordinates":[[-123.12662497503877,49.2624401639229],[-123.12902287868492,49.26247878109693]],"type":"LineString"},"properties":{"hblock":"1000 W 10TH AV","streetuse":"Residential","geo_point_2d":{"lon":-123.12782392686184,"lat":49.26245947250992}}},{"type":"Feature","geometry":{"coordinates":[[-123.12902287868492,49.26247878109693],[-123.13139346108103,49.26251690283301]],"type":"LineString"},"properties":{"hblock":"1100 W 10TH AV","streetuse":"Residential","geo_point_2d":{"lon":-123.13020816988296,"lat":49.26249784196497}}},{"type":"Feature","geometry":{"coordinates":[[-123.13109550334785,49.25707595591052],[-123.13181547854957,49.257087451188276]],"type":"LineString"},"properties":{"hblock":"1100 W 16TH AV","streetuse":"Secondary Arterial","geo_point_2d":{"lon":-123.13145549094871,"lat":49.2570817035494}}},{"type":"Feature","geometry":{"coordinates":[[-123.11941650090768,49.25699389775977],[-123.1200806645981,49.257006180486286]],"type":"LineString"},"properties":{"hblock":"600 W 16TH AV","streetuse":"Secondary Arterial","geo_point_2d":{"lon":-123.11974858275289,"lat":49.25700003912303}}},{"type":"Feature","geometry":{"coordinates":[[-123.12095083699077,49.25159812840467],[-123.12222990094551,49.251624874371984]],"type":"LineString"},"properties":{"hblock":"700 W 22ND AV","streetuse":"Residential","geo_point_2d":{"lon":-123.12159036896814,"lat":49.25161150138833}}},{"type":"Feature","geometry":{"coordinates":[[-123.12660753153715,49.255325877022905],[-123.12729926580428,49.25533681970883]],"type":"LineString"},"properties":{"hblock":"900 W 18TH AV","streetuse":"Residential","geo_point_2d":{"lon":-123.12695339867071,"lat":49.25533134836588}}},{"type":"Feature","geometry":{"coordinates":[[-123.12917922099156,49.258298144545556],[-123.12919640921831,49.25783837085518]],"type":"LineString"},"properties":{"hblock":"3000 SPRUCE ST","streetuse":"Residential","geo_point_2d":{"lon":-123.12918781510493,"lat":49.25806825770037}}},{"type":"Feature","geometry":{"coordinates":[[-123.12214639396932,49.25388563331154],[-123.12216595989375,49.253433539738346]],"type":"LineString"},"properties":{"hblock":"3500 WILLOW ST","streetuse":"Residential","geo_point_2d":{"lon":-123.12215617693153,"lat":49.253659586524954}}},{"type":"Feature","geometry":{"coordinates":[[-123.12203080584247,49.25704444475509],[-123.12204719045003,49.25659427079244]],"type":"LineString"},"properties":{"hblock":"3200 WILLOW ST","streetuse":"Residential","geo_point_2d":{"lon":-123.12203899814625,"lat":49.256819357773765}}},{"type":"Feature","geometry":{"coordinates":[[-123.02579395368699,49.255864553807776],[-123.02565839317637,49.2557757562345]],"type":"LineString"},"properties":{"hblock":"3200 DIEPPE DRIVE","streetuse":"Residential","geo_point_2d":{"lon":-123.02572617343168,"lat":49.25582015502114}}},{"type":"Feature","geometry":{"coordinates":[[-123.02921988365078,49.255680415654666],[-123.02890557692858,49.2558855586595]],"type":"LineString"},"properties":{"hblock":"3500 FALAISE AV","streetuse":"Residential","geo_point_2d":{"lon":-123.02906273028968,"lat":49.25578298715708}}},{"type":"Feature","geometry":{"coordinates":[[-123.026023681497,49.257580195556685],[-123.02560217150952,49.25757995690617],[-123.0254529820168,49.25756084805527],[-123.02532720563866,49.257505186329695],[-123.02472060004631,49.25710659587088],[-123.02463654933382,49.25702443354832],[-123.02460725616857,49.256926859707214],[-123.02460790111918,49.256648493661885]],"type":"LineString"},"properties":{"hblock":"3200-3600 VIMY CRESCENT","streetuse":"Residential","geo_point_2d":{"lon":-123.02515906042655,"lat":49.25729577508713}}},{"type":"Feature","geometry":{"coordinates":[[-123.03106490078112,49.25060204250344],[-123.02996138187015,49.25061475635627]],"type":"LineString"},"properties":{"hblock":"3400 E 22ND AV","streetuse":"Collector","geo_point_2d":{"lon":-123.03051314132561,"lat":49.25060839942985}}},{"type":"Feature","geometry":{"coordinates":[[-123.15993821563286,49.2506791238979],[-123.15964276442004,49.250268414566165]],"type":"LineString"},"properties":{"hblock":"4000 VALLEY DRIVE","streetuse":"Residential","geo_point_2d":{"lon":-123.15979049002645,"lat":49.25047376923203}}},{"type":"Feature","geometry":{"coordinates":[[-123.15801920454308,49.254474187811816],[-123.15803569520182,49.2540222542289]],"type":"LineString"},"properties":{"hblock":"3600 VINE ST","streetuse":"Residential","geo_point_2d":{"lon":-123.15802744987245,"lat":49.25424822102036}}},{"type":"Feature","geometry":{"coordinates":[[-123.06503926682991,49.25139523335891],[-123.06501228460988,49.25128435542689],[-123.06499017173945,49.25100968970622],[-123.06500883040991,49.25028625624155]],"type":"LineString"},"properties":{"hblock":"3800 VICTORIA DRIVE","streetuse":"Secondary Arterial","geo_point_2d":{"lon":-123.0650026215969,"lat":49.25084239807647}}},{"type":"Feature","geometry":{"coordinates":[[-123.06438268347199,49.253667056553155],[-123.06374663360174,49.25349017642261]],"type":"LineString"},"properties":{"hblock":"1900 E 19TH AV","streetuse":"Residential","geo_point_2d":{"lon":-123.06406465853686,"lat":49.253578616487886}}},{"type":"Feature","geometry":{"coordinates":[[-123.0691744748476,49.26231435403839],[-123.06614674928612,49.262292019930854]],"type":"LineString"},"properties":{"hblock":"1700-1800 E BROADWAY","streetuse":"Arterial","geo_point_2d":{"lon":-123.06766061206687,"lat":49.262303186984624}}},{"type":"Feature","geometry":{"coordinates":[[-123.1598093004649,49.27000848789549],[-123.15982595316318,49.26956772708739]],"type":"LineString"},"properties":{"hblock":"1800 BALSAM ST","streetuse":"Residential","geo_point_2d":{"lon":-123.15981762681403,"lat":49.269788107491436}}},{"type":"Feature","geometry":{"coordinates":[[-123.15976012484784,49.27133096691453],[-123.15977637940142,49.27089009882335]],"type":"LineString"},"properties":{"hblock":"1600 BALSAM ST","streetuse":"Residential","geo_point_2d":{"lon":-123.15976825212462,"lat":49.271110532868946}}},{"type":"Feature","geometry":{"coordinates":[[-123.16518507881996,49.25368534918936],[-123.16588490792203,49.25368849328922]],"type":"LineString"},"properties":{"hblock":"2700 W 21ST AV","streetuse":"Residential","geo_point_2d":{"lon":-123.165534993371,"lat":49.25368692123929}}},{"type":"Feature","geometry":{"coordinates":[[-123.164502836213,49.25367297369651],[-123.16518507881996,49.25368534918936]],"type":"LineString"},"properties":{"hblock":"2400-2600 W 21ST AV","streetuse":"Residential","geo_point_2d":{"lon":-123.16484395751648,"lat":49.253679161442925}}},{"type":"Feature","geometry":{"coordinates":[[-123.1552629101132,49.264777814502565],[-123.15527970854255,49.264344834621]],"type":"LineString"},"properties":{"hblock":"2400 YEW ST","streetuse":"Residential","geo_point_2d":{"lon":-123.15527130932787,"lat":49.26456132456178}}},{"type":"Feature","geometry":{"coordinates":[[-123.05373845378242,49.2160790663817],[-123.05377990856984,49.2159774274245],[-123.05383444455907,49.21588416595483],[-123.0542027602756,49.21524265727101]],"type":"LineString"},"properties":{"hblock":"7500 ELLIOTT ST","streetuse":"Collector","geo_point_2d":{"lon":-123.05396500831391,"lat":49.21565815038596}}},{"type":"Feature","geometry":{"coordinates":[[-123.044983894829,49.26850444280837],[-123.04423046078875,49.268500901727485]],"type":"LineString"},"properties":{"hblock":"2800 E 2ND AV","streetuse":"Residential","geo_point_2d":{"lon":-123.04460717780887,"lat":49.26850267226793}}},{"type":"Feature","geometry":{"coordinates":[[-123.09493136201644,49.2620154118091],[-123.09493858848619,49.26156965731618]],"type":"LineString"},"properties":{"hblock":"2500 GUELPH ST","streetuse":"Residential","geo_point_2d":{"lon":-123.09493497525132,"lat":49.261792534562645}}},{"type":"Feature","geometry":{"coordinates":[[-123.09827556959398,49.2610886458329],[-123.09776706798105,49.26107966824709]],"type":"LineString"},"properties":{"hblock":"300 E 11TH AV","streetuse":"Residential","geo_point_2d":{"lon":-123.09802131878752,"lat":49.261084157039996}}},{"type":"Feature","geometry":{"coordinates":[[-123.10197648602797,49.25750388680679],[-123.10119100896769,49.25749040096366]],"type":"LineString"},"properties":{"hblock":"100 E 15TH AV","streetuse":"Residential","geo_point_2d":{"lon":-123.10158374749783,"lat":49.257497143885224}}},{"type":"Feature","geometry":{"coordinates":[[-123.09708746997585,49.2547375806238],[-123.09656007282925,49.25473023274638]],"type":"LineString"},"properties":{"hblock":"300 E 18TH AV","streetuse":"Residential","geo_point_2d":{"lon":-123.09682377140255,"lat":49.25473390668509}}},{"type":"Feature","geometry":{"coordinates":[[-123.10290181304536,49.25183270468083],[-123.101514093353,49.25180870073842]],"type":"LineString"},"properties":{"hblock":"100 E 21ST AV","streetuse":"Residential","geo_point_2d":{"lon":-123.10220795319917,"lat":49.25182070270962}}},{"type":"Feature","geometry":{"coordinates":[[-123.1072769818372,49.25279872496812],[-123.10729716292323,49.252346093577245]],"type":"LineString"},"properties":{"hblock":"3600 MANITOBA ST","streetuse":"Residential","geo_point_2d":{"lon":-123.10728707238022,"lat":49.25257240927269}}},{"type":"Feature","geometry":{"coordinates":[[-123.10098765562395,49.25072079383394],[-123.10100292024332,49.25024847713826]],"type":"LineString"},"properties":{"hblock":"3800 MAIN ST","streetuse":"Arterial","geo_point_2d":{"lon":-123.10099528793364,"lat":49.2504846354861}}},{"type":"Feature","geometry":{"coordinates":[[-123.16014073013525,49.26111590826246],[-123.16250959276049,49.261153366964486]],"type":"LineString"},"properties":{"hblock":"2400 W 12TH AV","streetuse":"Secondary Arterial","geo_point_2d":{"lon":-123.16132516144788,"lat":49.26113463761347}}},{"type":"Feature","geometry":{"coordinates":[[-123.16252730060818,49.26067378924811],[-123.16254481071739,49.26021361444446]],"type":"LineString"},"properties":{"hblock":"2800 LARCH ST","streetuse":"Residential","geo_point_2d":{"lon":-123.16253605566278,"lat":49.260443701846285}}},{"type":"Feature","geometry":{"coordinates":[[-123.1644014582511,49.25638614009087],[-123.16508408608405,49.256399801956256]],"type":"LineString"},"properties":{"hblock":"2600 W 18TH AV","streetuse":"Residential","geo_point_2d":{"lon":-123.1647427721676,"lat":49.25639297102356}}},{"type":"Feature","geometry":{"coordinates":[[-123.16244014623837,49.263013053671784],[-123.16470724901825,49.26304873935451]],"type":"LineString"},"properties":{"hblock":"2500 W 10TH AV","streetuse":"Residential","geo_point_2d":{"lon":-123.16357369762831,"lat":49.26303089651314}}},{"type":"Feature","geometry":{"coordinates":[[-123.08764365216976,49.22268870682622],[-123.0853205589282,49.222656246023575]],"type":"LineString"},"properties":{"hblock":"800-900 E 52ND AV","streetuse":"Residential","geo_point_2d":{"lon":-123.08648210554898,"lat":49.2226724764249}}},{"type":"Feature","geometry":{"coordinates":[[-123.06900469079262,49.22521028658507],[-123.06901964745342,49.2247569612643]],"type":"LineString"},"properties":{"hblock":"6500 COMMERCIAL ST","streetuse":"Residential","geo_point_2d":{"lon":-123.06901216912303,"lat":49.224983623924686}}},{"type":"Feature","geometry":{"coordinates":[[-123.06904836123428,49.22388693095798],[-123.06906184121229,49.22347827690834]],"type":"LineString"},"properties":{"hblock":"6600 COMMERCIAL ST","streetuse":"Residential","geo_point_2d":{"lon":-123.06905510122328,"lat":49.223682603933156}}},{"type":"Feature","geometry":{"coordinates":[[-123.07177915458999,49.22480962893346],[-123.07183941486613,49.22333851456652]],"type":"LineString"},"properties":{"hblock":"6500-6600 ARGYLE ST","streetuse":"Residential","geo_point_2d":{"lon":-123.07180928472806,"lat":49.22407407174998}}},{"type":"Feature","geometry":{"coordinates":[[-123.07314799577074,49.225247937097265],[-123.07316345184068,49.22482365663309]],"type":"LineString"},"properties":{"hblock":"6500-6600 FLEMING ST","streetuse":"Residential","geo_point_2d":{"lon":-123.07315572380573,"lat":49.22503579686518}}},{"type":"Feature","geometry":{"coordinates":[[-123.07591094683282,49.22527770988345],[-123.07592534929904,49.22485348371202]],"type":"LineString"},"properties":{"hblock":"6500-6600 LANARK ST","streetuse":"Residential","geo_point_2d":{"lon":-123.07591814806592,"lat":49.225065596797734}}},{"type":"Feature","geometry":{"coordinates":[[-123.04312133890473,49.22929442728588],[-123.04312267625188,49.229142406928084],[-123.04312267611878,49.229142254008735],[-123.04312254542158,49.2291183356664],[-123.04312176918555,49.229094426560174],[-123.04312036114665,49.22907052668494],[-123.04311832131363,49.22904664503594],[-123.04311563596802,49.229022799608764],[-123.04311231883798,49.228998981402995],[-123.04310838366722,49.22897519940869],[-123.04310380300224,49.22895147162656],[-123.04309857685182,49.22892780705178],[-123.043092732679,49.22890419667876],[-123.0430862705003,49.22888065849793],[-123.04307916285441,49.22885720151468],[-123.04307143721219,49.22883382571863],[-123.04306309358225,49.22881054010494],[-123.04305413197329,49.2287873536687],[-123.04304455239388,49.22876427540507],[-123.04303435485267,49.22874131430911],[-123.04302355308538,49.22871847037557],[-123.04301213336562,49.22869575260464],[-123.04300012317182,49.228673169981164],[-123.04298750876978,49.22865072251007],[-123.0429742901758,49.228628428181686],[-123.04296048112552,49.2286062869907],[-123.04294609536224,49.22858430792703],[-123.04293111915173,49.228562490995586],[-123.04291556624507,49.228540854181524],[-123.04289943664287,49.22851939748465],[-123.04288274408835,49.22849812989487],[-123.04286547484718,49.228477051417016],[-123.04284765640516,49.22845618003117],[-123.04282927502014,49.22843550674693],[-123.04281035818562,49.2284150585396],[-123.04279089215164,49.228394817423506],[-123.04277089067672,49.22837481037904],[-123.04275035375352,49.228355028410675],[-123.04272930886752,49.2283354894985],[-123.0427077285494,49.228316193652375],[-123.04268564027684,49.228297149857106],[-123.04266305778488,49.22827835810734],[-123.0426399673467,49.228259827403114],[-123.0426163964321,49.22824155773401],[-123.0425923450567,49.228223567090204],[-123.04256779948581,49.2282058554765],[-123.04254280092393,49.2281884228774],[-123.04251733564405,49.22817127829292],[-123.0424914173887,49.22815443071296],[-123.04246505989262,49.228137880132174],[-123.04160411587668,49.2276061327761],[-123.04157282716041,49.227588297443845],[-123.04154201887654,49.227570102119884],[-123.04151170477493,49.227551564790154],[-123.04148188484811,49.22753267645981],[-123.04145257284581,49.227513455114796],[-123.04142376876048,49.22749389176026],[-123.04139550008385,49.22747401337249],[-123.04136776680834,49.22745381095661],[-123.0413405689413,49.2274332935083],[-123.04131393395926,49.22741247001333],[-123.04130439572516,49.22740474649523],[-123.04128784813491,49.22739134947226],[-123.0412623251951,49.22736992288531],[-123.04123739263115,49.22734821722881],[-123.04121302296609,49.22732622351768],[-123.04118927114529,49.22730395072794],[-123.04116609597963,49.22728141686517],[-123.04114352493775,49.227258621919944],[-123.04112157176115,49.227235574882954],[-123.04110023644934,49.227212275754574],[-123.04107951901668,49.22718874252565],[-123.04105943319703,49.22716497519163],[-123.04103997898984,49.22714097375283],[-123.04102117014382,49.22711675619524],[-123.0410030066657,49.2270923315144],[-123.04098550228929,49.22706769970574],[-123.04096865702861,49.227042878760074],[-123.04095248460997,49.227017859677595],[-123.04093697131292,49.22699266045393],[-123.04092950310125,49.22698006973435]],"type":"LineString"},"properties":{"hblock":"6000-6100 RUPERT ST","streetuse":"Secondary Arterial","geo_point_2d":{"lon":-123.04218073458962,"lat":49.22804785579829}}},{"type":"Feature","geometry":{"coordinates":[[-123.04258858218746,49.22474046803309],[-123.0426153596909,49.22422537127563]],"type":"LineString"},"properties":{"hblock":"6500-6600 LANCASTER ST","streetuse":"Residential","geo_point_2d":{"lon":-123.04260197093919,"lat":49.22448291965436}}},{"type":"Feature","geometry":{"coordinates":[[-123.04335363694956,49.290716609746234],[-123.04279008855727,49.29020945667768]],"type":"LineString"},"properties":{"hblock":"2900 WALL ST","streetuse":"Residential","geo_point_2d":{"lon":-123.04307186275342,"lat":49.29046303321196}}},{"type":"Feature","geometry":{"coordinates":[[-123.02341809940455,49.290188137686236],[-123.02341009710511,49.290684762192356]],"type":"LineString"},"properties":{"hblock":"500 N BOUNDARY ROAD","streetuse":"Secondary Arterial","geo_point_2d":{"lon":-123.02341409825483,"lat":49.29043644993929}}},{"type":"Feature","geometry":{"coordinates":[[-123.02793817189519,49.24087869847213],[-123.02830475144019,49.240494458531174]],"type":"LineString"},"properties":{"hblock":"4800 PAYNE ST","streetuse":"Residential","geo_point_2d":{"lon":-123.02812146166768,"lat":49.24068657850165}}},{"type":"Feature","geometry":{"coordinates":[[-123.03218252437095,49.24208036541867],[-123.03258218314258,49.24166519512547]],"type":"LineString"},"properties":{"hblock":"4800 MCHARDY ST","streetuse":"Residential","geo_point_2d":{"lon":-123.03238235375674,"lat":49.241872780272075}}},{"type":"Feature","geometry":{"coordinates":[[-123.0364584865757,49.237584973687625],[-123.03562839836407,49.237251922866605]],"type":"LineString"},"properties":{"hblock":"3300 EUCLID AV","streetuse":"Residential","geo_point_2d":{"lon":-123.03604344246989,"lat":49.23741844827711}}},{"type":"Feature","geometry":{"coordinates":[[-123.042440833698,49.24000516083683],[-123.04150754908001,49.23962489327784]],"type":"LineString"},"properties":{"hblock":"3000 EUCLID AV","streetuse":"Residential","geo_point_2d":{"lon":-123.041974191389,"lat":49.23981502705733}}},{"type":"Feature","geometry":{"coordinates":[[-123.0438308695281,49.24056895823602],[-123.0433985106348,49.24039280575943]],"type":"LineString"},"properties":{"hblock":"2900 EUCLID AV","streetuse":"Residential","geo_point_2d":{"lon":-123.04361469008145,"lat":49.240480881997726}}},{"type":"Feature","geometry":{"coordinates":[[-123.11815726186676,49.243203538477815],[-123.11816156623115,49.2431994862181],[-123.11817209269739,49.243188987003165],[-123.11818137149353,49.2431795684922],[-123.11819111554156,49.24316936691874],[-123.1182009545986,49.243158679504376],[-123.11820991558504,49.24314850571617],[-123.11821895831413,49.243138043996],[-123.11822799972941,49.243127033566886],[-123.11823624578777,49.24311665361775],[-123.11824457320216,49.2431058238228],[-123.11825311854508,49.243094202223155],[-123.11826101875754,49.24308283314994],[-123.11826790490937,49.24307256253339],[-123.1182751874237,49.24306142796771],[-123.11828208500968,49.24305019484803],[-123.11828881768302,49.24303894390629],[-123.11829535702064,49.243027279381124],[-123.11830152585685,49.24301580413497],[-123.1183073238052,49.243004356253984],[-123.11831295651912,49.242992755622865],[-123.11831850535734,49.242980552396325],[-123.11832340988487,49.24296894351515],[-123.11832786231736,49.24295787481115],[-123.11833229976241,49.24294628439846],[-123.11833670781469,49.2429338934394],[-123.11834058095253,49.24292188082812],[-123.11834413871846,49.24291012940168],[-123.11834733948778,49.242898468293205],[-123.1183504431809,49.242886429484024],[-123.1183531075953,49.24287454404382],[-123.11835559370456,49.24286278471955],[-123.11835789862813,49.24284994615215],[-123.11835967020869,49.242838142583565],[-123.11836127627762,49.24282606932734],[-123.11836251159119,49.24281407740808],[-123.11836355486174,49.242802211618866],[-123.11836420183474,49.242791236764326],[-123.11839317553887,49.24215843694651]],"type":"LineString"},"properties":{"hblock":"4700 CAMBIE ST","streetuse":"Arterial","geo_point_2d":{"lon":-123.11833968178836,"lat":49.24270367961184}}},{"type":"Feature","geometry":{"coordinates":[[-123.11694987606661,49.24103669828704],[-123.1154491330391,49.23969034260387]],"type":"LineString"},"properties":{"hblock":"4900-5000 KERSLAND DRIVE","streetuse":"Residential","geo_point_2d":{"lon":-123.11619950455287,"lat":49.240363520445456}}},{"type":"Feature","geometry":{"coordinates":[[-123.1002573717362,49.211717530320165],[-123.10028337992675,49.21125749774636]],"type":"LineString"},"properties":{"hblock":"8100 SOPHIA ST","streetuse":"Residential","geo_point_2d":{"lon":-123.10027037583149,"lat":49.211487514033266}}},{"type":"Feature","geometry":{"coordinates":[[-123.10837312306067,49.206870176739706],[-123.11025530370044,49.206884739903806]],"type":"LineString"},"properties":{"hblock":"0-100 W KENT AV NORTH","streetuse":"Secondary Arterial","geo_point_2d":{"lon":-123.10931421338056,"lat":49.206877458321756}}},{"type":"Feature","geometry":{"coordinates":[[-123.10685141280297,49.20658972688802],[-123.10691915445774,49.20523522444922]],"type":"LineString"},"properties":{"hblock":"8700-8800 ONTARIO ST","streetuse":"Residential","geo_point_2d":{"lon":-123.10688528363035,"lat":49.20591247566862}}},{"type":"Feature","geometry":{"coordinates":[[-123.05685258686668,49.20641157379698],[-123.05684959953255,49.206152951567205]],"type":"LineString"},"properties":{"hblock":"8400 ELLIOTT ST","streetuse":"Residential","geo_point_2d":{"lon":-123.05685109319961,"lat":49.206282262682095}}},{"type":"Feature","geometry":{"coordinates":[[-123.0568456353082,49.20580858665691],[-123.05684141292816,49.2054425611816]],"type":"LineString"},"properties":{"hblock":"8500 ELLIOTT ST","streetuse":"Residential","geo_point_2d":{"lon":-123.05684352411818,"lat":49.20562557391925}}},{"type":"Feature","geometry":{"coordinates":[[-123.06312874585913,49.210564687175676],[-123.06164000293552,49.21006058571592]],"type":"LineString"},"properties":{"hblock":"2100 BURQUITLAM DRIVE","streetuse":"Residential","geo_point_2d":{"lon":-123.06238437439733,"lat":49.2103126364458}}},{"type":"Feature","geometry":{"coordinates":[[-123.05934639095756,49.217964106202636],[-123.05933145005575,49.21753919502138]],"type":"LineString"},"properties":{"hblock":"7300 NANAIMO ST","streetuse":"Residential","geo_point_2d":{"lon":-123.05933892050666,"lat":49.21775165061201}}},{"type":"Feature","geometry":{"coordinates":[[-123.05659031032631,49.21743999426033],[-123.05684350072298,49.2170835760207]],"type":"LineString"},"properties":{"hblock":"7300 ASHBURN ST","streetuse":"Residential","geo_point_2d":{"lon":-123.05671690552464,"lat":49.217261785140515}}},{"type":"Feature","geometry":{"coordinates":[[-123.09973260479083,49.22101433624914],[-123.0997470896768,49.22056238325064]],"type":"LineString"},"properties":{"hblock":"7000 SOPHIA ST","streetuse":"Residential","geo_point_2d":{"lon":-123.09973984723382,"lat":49.22078835974989}}},{"type":"Feature","geometry":{"coordinates":[[-123.09970181516908,49.221915104355084],[-123.09971671977715,49.221466731187185]],"type":"LineString"},"properties":{"hblock":"6900 SOPHIA ST","streetuse":"Residential","geo_point_2d":{"lon":-123.09970926747312,"lat":49.221690917771134}}},{"type":"Feature","geometry":{"coordinates":[[-123.04552130914743,49.23921533027957],[-123.0458723925897,49.23885822419987]],"type":"LineString"},"properties":{"hblock":"5000-5100 MOSS ST","streetuse":"Residential","geo_point_2d":{"lon":-123.04569685086857,"lat":49.23903677723972}}},{"type":"Feature","geometry":{"coordinates":[[-123.06275708469312,49.237444140212865],[-123.06271493170121,49.2374713377406],[-123.06207597557967,49.23746833661261]],"type":"LineString"},"properties":{"hblock":"2000-2100 E 36TH AV","streetuse":"Residential","geo_point_2d":{"lon":-123.06242024450948,"lat":49.23746895648103}}},{"type":"Feature","geometry":{"coordinates":[[-123.06207597557967,49.23746833661261],[-123.06208338978247,49.23691714894068]],"type":"LineString"},"properties":{"hblock":"5200 GLADSTONE ST","streetuse":"Residential","geo_point_2d":{"lon":-123.06207968268107,"lat":49.23719274277664}}},{"type":"Feature","geometry":{"coordinates":[[-123.05871940514155,49.239777362430345],[-123.05643139404827,49.239764191289716]],"type":"LineString"},"properties":{"hblock":"2300 E 33RD AV","streetuse":"Secondary Arterial","geo_point_2d":{"lon":-123.05757539959492,"lat":49.23977077686003}}},{"type":"Feature","geometry":{"coordinates":[[-123.06276630355036,49.238117141438835],[-123.06206884401796,49.23811365031729]],"type":"LineString"},"properties":{"hblock":"2000-2100 E 35TH AV","streetuse":"Residential","geo_point_2d":{"lon":-123.06241757378417,"lat":49.23811539587806}}},{"type":"Feature","geometry":{"coordinates":[[-123.06404273616623,49.2415130531714],[-123.06343272858874,49.24150913497181]],"type":"LineString"},"properties":{"hblock":"2000 E 32ND AV","streetuse":"Residential","geo_point_2d":{"lon":-123.0637377323775,"lat":49.241511094071605}}},{"type":"Feature","geometry":{"coordinates":[[-123.05654942056525,49.23890077921194],[-123.05656803209783,49.23739443550224]],"type":"LineString"},"properties":{"hblock":"5000-5100 ST. MARGARETS ST","streetuse":"Residential","geo_point_2d":{"lon":-123.05655872633152,"lat":49.23814760735709}}},{"type":"Feature","geometry":{"coordinates":[[-123.05408302632674,49.24003412832964],[-123.05438642492503,49.239752677711984]],"type":"LineString"},"properties":{"hblock":"4900 SLOCAN ST","streetuse":"Secondary Arterial","geo_point_2d":{"lon":-123.05423472562589,"lat":49.239893403020815}}},{"type":"Feature","geometry":{"coordinates":[[-123.0529829805449,49.23888130411609],[-123.05300477627823,49.237373637226966]],"type":"LineString"},"properties":{"hblock":"5000-5100 CHAMBERS ST","streetuse":"Residential","geo_point_2d":{"lon":-123.05299387841158,"lat":49.23812747067153}}},{"type":"Feature","geometry":{"coordinates":[[-123.13647425538879,49.23237648875072],[-123.13653847199599,49.230502853591965]],"type":"LineString"},"properties":{"hblock":"5900-6000 ATHLONE ST","streetuse":"Residential","geo_point_2d":{"lon":-123.13650636369239,"lat":49.231439671171344}}},{"type":"Feature","geometry":{"coordinates":[[-123.11611854466472,49.23539535867381],[-123.11615475657341,49.23448218732661]],"type":"LineString"},"properties":{"hblock":"5500 CAMBIE ST","streetuse":"Arterial","geo_point_2d":{"lon":-123.11613665061907,"lat":49.23493877300021}}},{"type":"Feature","geometry":{"coordinates":[[-123.1119594807002,49.23564337950351],[-123.11202996549585,49.23562558153397],[-123.11216666718148,49.235579797991306],[-123.11265963501828,49.23540791380234]],"type":"LineString"},"properties":{"hblock":"300 W 39TH AV","streetuse":"Residential","geo_point_2d":{"lon":-123.11231056225402,"lat":49.235528923905605}}},{"type":"Feature","geometry":{"coordinates":[[-123.04932528418819,49.28478353094381],[-123.04669845344313,49.28478015177388]],"type":"LineString"},"properties":{"hblock":"2700 DUNDAS ST","streetuse":"Collector","geo_point_2d":{"lon":-123.04801186881565,"lat":49.28478184135886}}},{"type":"Feature","geometry":{"coordinates":[[-123.13030854748085,49.23588287867832],[-123.13032440553485,49.235425542236]],"type":"LineString"},"properties":{"hblock":"5500 OSLER ST","streetuse":"Residential","geo_point_2d":{"lon":-123.13031647650786,"lat":49.235654210457156}}},{"type":"Feature","geometry":{"coordinates":[[-123.05458214749433,49.28298103550056],[-123.05195512359317,49.28297788387157]],"type":"LineString"},"properties":{"hblock":"2500 PANDORA ST","streetuse":"Residential","geo_point_2d":{"lon":-123.05326863554376,"lat":49.28297945968606}}},{"type":"Feature","geometry":{"coordinates":[[-123.05195512359317,49.28297788387157],[-123.0519552119203,49.282525354603564]],"type":"LineString"},"properties":{"hblock":"200 PENTICTON ST","streetuse":"Residential","geo_point_2d":{"lon":-123.05195516775674,"lat":49.28275161923757}}},{"type":"Feature","geometry":{"coordinates":[[-123.04023497638117,49.23431725798887],[-123.04022963545744,49.23425276390694],[-123.04022792858446,49.232962782543225]],"type":"LineString"},"properties":{"hblock":"5500-5600 KERR ST","streetuse":"Residential","geo_point_2d":{"lon":-123.04022895036006,"lat":49.23364012535093}}},{"type":"Feature","geometry":{"coordinates":[[-123.13753949678798,49.21706307481179],[-123.13755536740473,49.21660666235736]],"type":"LineString"},"properties":{"hblock":"7500 CARTIER ST","streetuse":"Residential","geo_point_2d":{"lon":-123.13754743209635,"lat":49.21683486858456}}},{"type":"Feature","geometry":{"coordinates":[[-123.14342627932979,49.216834172782335],[-123.1433980178735,49.21674339151209],[-123.14340972664355,49.21640966103065]],"type":"LineString"},"properties":{"hblock":"7600 ADERA ST","streetuse":"Residential","geo_point_2d":{"lon":-123.14340570647056,"lat":49.2166235666466}}},{"type":"Feature","geometry":{"coordinates":[[-123.12389816284747,49.21701792877434],[-123.12393135188609,49.21606756877885]],"type":"LineString"},"properties":{"hblock":"7500 HEATHER ST","streetuse":"Residential","geo_point_2d":{"lon":-123.12391475736679,"lat":49.21654274877659}}},{"type":"Feature","geometry":{"coordinates":[[-123.12394997062093,49.21553445243287],[-123.12459566655842,49.21554370654188]],"type":"LineString"},"properties":{"hblock":"800 W 61ST AV","streetuse":"Residential","geo_point_2d":{"lon":-123.12427281858967,"lat":49.21553907948738}}},{"type":"Feature","geometry":{"coordinates":[[-123.12320193714139,49.2160561874392],[-123.12393135188609,49.21606756877885]],"type":"LineString"},"properties":{"hblock":"700 W 60TH AV","streetuse":"Residential","geo_point_2d":{"lon":-123.12356664451374,"lat":49.21606187810902}}},{"type":"Feature","geometry":{"coordinates":[[-123.124374774801,49.25749168810408],[-123.12439030045189,49.2570909434808]],"type":"LineString"},"properties":{"hblock":"3100 LAUREL ST","streetuse":"Residential","geo_point_2d":{"lon":-123.12438253762646,"lat":49.25729131579244}}},{"type":"Feature","geometry":{"coordinates":[[-123.04875093208837,49.234042789311886],[-123.04806065065594,49.234043690227686]],"type":"LineString"},"properties":{"hblock":"2800 E 40TH AV","streetuse":"Residential","geo_point_2d":{"lon":-123.04840579137215,"lat":49.23404323976979}}},{"type":"Feature","geometry":{"coordinates":[[-123.05167155594053,49.232792736100194],[-123.05166222922529,49.2322395771942]],"type":"LineString"},"properties":{"hblock":"5700 WALES ST","streetuse":"Residential","geo_point_2d":{"lon":-123.05166689258293,"lat":49.23251615664719}}},{"type":"Feature","geometry":{"coordinates":[[-123.15633375906106,49.22239456892898],[-123.15634981236248,49.22194594392008]],"type":"LineString"},"properties":{"hblock":"6900 BEECHWOOD ST","streetuse":"Residential","geo_point_2d":{"lon":-123.15634178571175,"lat":49.22217025642453}}},{"type":"Feature","geometry":{"coordinates":[[-123.15634981236248,49.22194594392008],[-123.15641112363407,49.220185764420705]],"type":"LineString"},"properties":{"hblock":"7000-7200 BEECHWOOD ST","streetuse":"Residential","geo_point_2d":{"lon":-123.15638046799828,"lat":49.22106585417039}}},{"type":"Feature","geometry":{"coordinates":[[-123.08329138038323,49.26292461159142],[-123.08330177245715,49.26242728611425]],"type":"LineString"},"properties":{"hblock":"2400 WINDSOR ST","streetuse":"Residential","geo_point_2d":{"lon":-123.0832965764202,"lat":49.26267594885284}}},{"type":"Feature","geometry":{"coordinates":[[-123.08332114839504,49.26147822376001],[-123.08138704900672,49.26146250245427]],"type":"LineString"},"properties":{"hblock":"1000 E 10TH AV","streetuse":"Residential","geo_point_2d":{"lon":-123.08235409870088,"lat":49.26147036310714}}},{"type":"Feature","geometry":{"coordinates":[[-123.15798568416346,49.25537735397358],[-123.16035430009218,49.255415468817574]],"type":"LineString"},"properties":{"hblock":"2300 W 19TH AV","streetuse":"Residential","geo_point_2d":{"lon":-123.15916999212783,"lat":49.25539641139558}}},{"type":"Feature","geometry":{"coordinates":[[-123.13924687429362,49.2240687621944],[-123.13995843057508,49.22407915535336]],"type":"LineString"},"properties":{"hblock":"1400 W 52ND AV","streetuse":"Residential","geo_point_2d":{"lon":-123.13960265243433,"lat":49.22407395877388}}},{"type":"Feature","geometry":{"coordinates":[[-123.1374446759263,49.22688146480015],[-123.13858926687486,49.22691740964143]],"type":"LineString"},"properties":{"hblock":"1400 W 49TH AV","streetuse":"Secondary Arterial","geo_point_2d":{"lon":-123.13801697140057,"lat":49.226899437220794}}},{"type":"Feature","geometry":{"coordinates":[[-123.03844783748211,49.218765787188104],[-123.03804945070485,49.21876252788318]],"type":"LineString"},"properties":{"hblock":"7000-7100 MONT ROYAL SQUARE","streetuse":"Residential","geo_point_2d":{"lon":-123.03824864409347,"lat":49.21876415753564}}},{"type":"Feature","geometry":{"coordinates":[[-123.14332159766936,49.236965922262556],[-123.14329802338808,49.23696076124789],[-123.14327458570295,49.236955330201525],[-123.14325129837748,49.23694963810171],[-123.14322817512316,49.23694367593631],[-123.14320520220315,49.23693744372241],[-123.14318240714411,49.23693095941652],[-123.14315977618314,49.23692421404054],[-123.14313733679488,49.23691720756051],[-123.14311508900556,49.23690994897178],[-123.14309303281547,49.23690243827443],[-123.14307118196203,49.23689467545157],[-123.1430495501826,49.23688666048632],[-123.14302812376623,49.236878402391014],[-123.1430069301875,49.23686990113175],[-123.14298595570935,49.236861156725666],[-123.14296522783233,49.23685217813409],[-123.14294473279345,49.236842956378936],[-123.14292449811907,49.236833509416776],[-123.14290451004625,49.23682382826953],[-123.14288478233821,49.23681392191554],[-123.14286532873219,49.236803790337916],[-123.14284614925423,49.236793442532075],[-123.14282723014135,49.23678286951989],[-123.14280861265689,49.23677208924097],[-123.14279028303785,49.23676109271723],[-123.1427722413361,49.236749897939234],[-123.14275451497409,49.236738486882736],[-123.14273709026652,49.236726877555284],[-123.1427199535022,49.23671507896923],[-123.14270315957774,49.23670307306636],[-123.14268668109663,49.236690886866405],[-123.14267053179594,49.23667852035255],[-123.14265471164963,49.236665964529706],[-123.1426392344207,49.23665322837627],[-123.14262410010899,49.23664031189238],[-123.14260930876625,49.23662723306858],[-123.14259487410352,49.23661398289288],[-123.14258078240948,49.236600570377526],[-123.14256706115812,49.23658699548878],[-123.1425536966381,49.23657326723891],[-123.14254070261222,49.23655939460633],[-123.14252807905439,49.23654536859595],[-123.14251583975324,49.23653120718135],[-123.14250397094558,49.23651690138442],[-123.14249248642002,49.23650246917873],[-123.14248138615045,49.2364879015692],[-123.1424706838995,49.236473207534196],[-123.14246036595577,49.236458396086],[-123.14245045981889,49.236443476186054],[-123.14244093798868,49.23642843887312],[-123.14243181422769,49.23641329312555],[-123.14242310229854,49.23639804792178],[-123.14241480220088,49.23638270326184],[-123.14240691396024,49.23636726814107],[-123.1423994375763,49.23635174255955],[-123.14239237307457,49.23633613551257],[-123.14239208273568,49.23633548821241]],"type":"LineString"},"properties":{"hblock":"5500 SOMERSET CRESCENT","streetuse":"Residential","geo_point_2d":{"lon":-123.14280564275914,"lat":49.23672063334511}}},{"type":"Feature","geometry":{"coordinates":[[-123.04310814025504,49.23111077236738],[-123.04241671258276,49.23110497450709]],"type":"LineString"},"properties":{"hblock":"3000 E 43RD AV","streetuse":"Residential","geo_point_2d":{"lon":-123.0427624264189,"lat":49.23110787343724}}},{"type":"Feature","geometry":{"coordinates":[[-123.14361798914932,49.25760966877293],[-123.14363563341807,49.25713075944329]],"type":"LineString"},"properties":{"hblock":"3100 PINE ST","streetuse":"Residential","geo_point_2d":{"lon":-123.1436268112837,"lat":49.25737021410811}}},{"type":"Feature","geometry":{"coordinates":[[-123.1291103736495,49.260139110022685],[-123.12912760235763,49.25967857185175]],"type":"LineString"},"properties":{"hblock":"2800 SPRUCE ST","streetuse":"Residential","geo_point_2d":{"lon":-123.12911898800357,"lat":49.259908840937214}}},{"type":"Feature","geometry":{"coordinates":[[-123.12016506219291,49.25474870662266],[-123.12018196772232,49.25429697603408]],"type":"LineString"},"properties":{"hblock":"3400 HEATHER ST","streetuse":"Residential","geo_point_2d":{"lon":-123.12017351495761,"lat":49.25452284132837}}},{"type":"Feature","geometry":{"coordinates":[[-123.12005678317769,49.25815217783771],[-123.12006966980525,49.25769146548894]],"type":"LineString"},"properties":{"hblock":"3000 HEATHER ST","streetuse":"Residential","geo_point_2d":{"lon":-123.12006322649147,"lat":49.257921821663324}}},{"type":"Feature","geometry":{"coordinates":[[-123.12722979294234,49.25701357799479],[-123.12724300464093,49.25669470996932]],"type":"LineString"},"properties":{"hblock":"3200 OAK ST","streetuse":"Arterial","geo_point_2d":{"lon":-123.12723639879164,"lat":49.25685414398205}}},{"type":"Feature","geometry":{"coordinates":[[-123.12224737777652,49.25117325956394],[-123.12226372755569,49.25072165490564]],"type":"LineString"},"properties":{"hblock":"3800 WILLOW ST","streetuse":"Residential","geo_point_2d":{"lon":-123.1222555526661,"lat":49.25094745723479}}},{"type":"Feature","geometry":{"coordinates":[[-123.1298725830902,49.25200981616812],[-123.13207201309216,49.251858442850065]],"type":"LineString"},"properties":{"hblock":"1100 BALFOUR AV","streetuse":"Residential","geo_point_2d":{"lon":-123.1309722980912,"lat":49.251934129509095}}},{"type":"Feature","geometry":{"coordinates":[[-123.13289170864289,49.253643477695945],[-123.13284841059881,49.25358809892727],[-123.13244664460231,49.25290655135669],[-123.13215589851397,49.25220124491581],[-123.13207201309216,49.251858442850065]],"type":"LineString"},"properties":{"hblock":"3600-3700 SELKIRK ST","streetuse":"Residential","geo_point_2d":{"lon":-123.13242660644785,"lat":49.25277557291366}}},{"type":"Feature","geometry":{"coordinates":[[-123.1965964216611,49.25381424732261],[-123.19660009445658,49.25336188908953]],"type":"LineString"},"properties":{"hblock":"3700 CAMOSUN ST","streetuse":"Residential","geo_point_2d":{"lon":-123.19659825805884,"lat":49.25358806820607}}},{"type":"Feature","geometry":{"coordinates":[[-123.1374446759263,49.22688146480015],[-123.13747210550837,49.226312841434265]],"type":"LineString"},"properties":{"hblock":"6500 CARTIER ST","streetuse":"Residential","geo_point_2d":{"lon":-123.13745839071733,"lat":49.22659715311721}}},{"type":"Feature","geometry":{"coordinates":[[-123.13749184614072,49.22581451617122],[-123.13750983470271,49.22536794272035]],"type":"LineString"},"properties":{"hblock":"6600 CARTIER ST","streetuse":"Residential","geo_point_2d":{"lon":-123.13750084042172,"lat":49.22559122944578}}},{"type":"Feature","geometry":{"coordinates":[[-123.1390173803304,49.22967737948174],[-123.13974911335843,49.22970296064781]],"type":"LineString"},"properties":{"hblock":"1400 W 46TH AV","streetuse":"Residential","geo_point_2d":{"lon":-123.1393832468444,"lat":49.22969017006478}}},{"type":"Feature","geometry":{"coordinates":[[-123.13984324842981,49.22696583112502],[-123.13993325301352,49.22471009603211]],"type":"LineString"},"properties":{"hblock":"6500-6700 GRANVILLE ST","streetuse":"Arterial","geo_point_2d":{"lon":-123.13988825072167,"lat":49.22583796357857}}},{"type":"Feature","geometry":{"coordinates":[[-123.14359730615118,49.22647925023475],[-123.14364993986642,49.22412589680938]],"type":"LineString"},"properties":{"hblock":"6500-6700 ADERA ST","streetuse":"Residential","geo_point_2d":{"lon":-123.1436236230088,"lat":49.22530257352207}}},{"type":"Feature","geometry":{"coordinates":[[-123.13515177605638,49.22489569456511],[-123.135167775741,49.22445753431692]],"type":"LineString"},"properties":{"hblock":"6700 HUDSON ST","streetuse":"Residential","geo_point_2d":{"lon":-123.13515977589869,"lat":49.224676614441016}}},{"type":"Feature","geometry":{"coordinates":[[-123.11934009271316,49.229919299498484],[-123.12071148232826,49.22996637705618]],"type":"LineString"},"properties":{"hblock":"600 W 45TH AV","streetuse":"Residential","geo_point_2d":{"lon":-123.12002578752072,"lat":49.22994283827733}}},{"type":"Feature","geometry":{"coordinates":[[-123.07578361452921,49.22899259379793],[-123.07583009199757,49.22764520826567]],"type":"LineString"},"properties":{"hblock":"6100-6200 LANARK ST","streetuse":"Residential","geo_point_2d":{"lon":-123.0758068532634,"lat":49.228318901031805}}},{"type":"Feature","geometry":{"coordinates":[[-123.12871323033443,49.23768317723904],[-123.1302443082239,49.237735522662405]],"type":"LineString"},"properties":{"hblock":"1000 W 37TH AV","streetuse":"Residential","geo_point_2d":{"lon":-123.12947876927916,"lat":49.23770934995072}}},{"type":"Feature","geometry":{"coordinates":[[-123.12304078374609,49.23748903383971],[-123.12373576200415,49.23751283059023]],"type":"LineString"},"properties":{"hblock":"700 W 37TH AV","streetuse":"Residential","geo_point_2d":{"lon":-123.1233882728751,"lat":49.23750093221498}}},{"type":"Feature","geometry":{"coordinates":[[-123.12710888842578,49.24140794141316],[-123.1278187136104,49.24143459373249]],"type":"LineString"},"properties":{"hblock":"900 W 33RD AV","streetuse":"Collector","geo_point_2d":{"lon":-123.1274638010181,"lat":49.241421267572825}}},{"type":"Feature","geometry":{"coordinates":[[-123.13228351793396,49.241602159314155],[-123.1322964981923,49.24149316709676],[-123.13230068693011,49.24112231545316]],"type":"LineString"},"properties":{"hblock":"4900 SELKIRK ST","streetuse":"Residential","geo_point_2d":{"lon":-123.13229663213384,"lat":49.24136253184202}}},{"type":"Feature","geometry":{"coordinates":[[-123.12057572549176,49.24328599069374],[-123.12059126043012,49.24273712098484]],"type":"LineString"},"properties":{"hblock":"4700 HEATHER ST","streetuse":"Residential","geo_point_2d":{"lon":-123.12058349296093,"lat":49.24301155583929}}},{"type":"Feature","geometry":{"coordinates":[[-123.14411712226769,49.24194278459661],[-123.14418736876011,49.23991396372656]],"type":"LineString"},"properties":{"hblock":"4900-5000 MARGUERITE ST","streetuse":"Residential","geo_point_2d":{"lon":-123.14415224551391,"lat":49.240928374161584}}},{"type":"Feature","geometry":{"coordinates":[[-123.0863383553135,49.2147474192825],[-123.08569031872133,49.21473222306289]],"type":"LineString"},"properties":{"hblock":"800-900 E 61ST AV","streetuse":"Residential","geo_point_2d":{"lon":-123.08601433701742,"lat":49.2147398211727}}},{"type":"Feature","geometry":{"coordinates":[[-123.08785206914038,49.21650667229529],[-123.08549077415638,49.21646519473329]],"type":"LineString"},"properties":{"hblock":"800-900 E 59TH AV","streetuse":"Residential","geo_point_2d":{"lon":-123.08667142164839,"lat":49.21648593351429}}},{"type":"Feature","geometry":{"coordinates":[[-123.08802151406684,49.21388374423451],[-123.08739345388571,49.21386912703876]],"type":"LineString"},"properties":{"hblock":"800-900 E 62ND AV","streetuse":"Residential","geo_point_2d":{"lon":-123.08770748397627,"lat":49.213876435636635}}},{"type":"Feature","geometry":{"coordinates":[[-123.08547936284293,49.216894961609434],[-123.08549077415638,49.21646519473329]],"type":"LineString"},"properties":{"hblock":"7400 WINDSOR ST","streetuse":"Residential","geo_point_2d":{"lon":-123.08548506849965,"lat":49.216680078171365}}},{"type":"Feature","geometry":{"coordinates":[[-123.04144537472966,49.27181612350245],[-123.04145317748329,49.27135019676559]],"type":"LineString"},"properties":{"hblock":"1400 NOOTKA ST","streetuse":"Residential","geo_point_2d":{"lon":-123.04144927610648,"lat":49.271583160134014}}},{"type":"Feature","geometry":{"coordinates":[[-123.03762299828061,49.273719275287164],[-123.03762927117225,49.27325471673283]],"type":"LineString"},"properties":{"hblock":"1000-1200 HAZELTON ST","streetuse":"Residential","geo_point_2d":{"lon":-123.03762613472642,"lat":49.27348699600999}}},{"type":"Feature","geometry":{"coordinates":[[-123.03093566675534,49.273711103649006],[-123.03094252521343,49.273247138987486]],"type":"LineString"},"properties":{"hblock":"1200 CASSIAR ST","streetuse":"Residential","geo_point_2d":{"lon":-123.0309390959844,"lat":49.273479121318246}}},{"type":"Feature","geometry":{"coordinates":[[-123.03072328774915,49.27619824832511],[-123.03072876654346,49.27578910090067]],"type":"LineString"},"properties":{"hblock":"900 CASSIAR ST","streetuse":"Residential","geo_point_2d":{"lon":-123.0307260271463,"lat":49.27599367461289}}},{"type":"Feature","geometry":{"coordinates":[[-123.03360106404317,49.27620810660898],[-123.03360708065618,49.275795945503724]],"type":"LineString"},"properties":{"hblock":"900 RUPERT ST","streetuse":"Residential","geo_point_2d":{"lon":-123.03360407234968,"lat":49.276002026056354}}},{"type":"Feature","geometry":{"coordinates":[[-123.03054216600029,49.27494477231222],[-123.0283940039765,49.27493702659477]],"type":"LineString"},"properties":{"hblock":"3400 NAPIER ST","streetuse":"Residential","geo_point_2d":{"lon":-123.0294680849884,"lat":49.2749408994535}}},{"type":"Feature","geometry":{"coordinates":[[-123.03360708065618,49.275795945503724],[-123.0318012911685,49.27579166217104]],"type":"LineString"},"properties":{"hblock":"3300 PARKER ST","streetuse":"Residential","geo_point_2d":{"lon":-123.03270418591234,"lat":49.27579380383738}}},{"type":"Feature","geometry":{"coordinates":[[-123.02633646432213,49.26846671516628],[-123.02365349690258,49.26846294188323]],"type":"LineString"},"properties":{"hblock":"3600 E 2ND AV","streetuse":"Residential","geo_point_2d":{"lon":-123.02499498061236,"lat":49.26846482852475}}},{"type":"Feature","geometry":{"coordinates":[[-123.04419984704188,49.27042270086022],[-123.04146696516914,49.27041494364624]],"type":"LineString"},"properties":{"hblock":"2900 GRAVELEY ST","streetuse":"Residential","geo_point_2d":{"lon":-123.0428334061055,"lat":49.270418822253234}}},{"type":"Feature","geometry":{"coordinates":[[-123.03638624914487,49.27227600645048],[-123.03440998862735,49.27227362548391]],"type":"LineString"},"properties":{"hblock":"3200 KITCHENER ST","streetuse":"Residential","geo_point_2d":{"lon":-123.0353981188861,"lat":49.272274815967194}}},{"type":"Feature","geometry":{"coordinates":[[-123.02370144310366,49.241512640326015],[-123.02371251743664,49.24142888338813],[-123.02371231336942,49.24114613609027]],"type":"LineString"},"properties":{"hblock":"4800 BOUNDARY ROAD","streetuse":"Arterial","geo_point_2d":{"lon":-123.02371116499333,"lat":49.241329668823916}}},{"type":"Feature","geometry":{"coordinates":[[-123.10057577507396,49.257954884368935],[-123.10060598435076,49.25750287550239]],"type":"LineString"},"properties":{"hblock":"3000 WATSON ST","streetuse":"Residential","geo_point_2d":{"lon":-123.10059087971237,"lat":49.25772887993566}}},{"type":"Feature","geometry":{"coordinates":[[-123.0983697137015,49.25837710306811],[-123.098385018457,49.257925107508875]],"type":"LineString"},"properties":{"hblock":"3000 SOPHIA ST","streetuse":"Residential","geo_point_2d":{"lon":-123.09837736607925,"lat":49.25815110528849}}},{"type":"Feature","geometry":{"coordinates":[[-123.0918751968072,49.25556149638434],[-123.09189105486968,49.25510956400281]],"type":"LineString"},"properties":{"hblock":"3300 CAROLINA ST","streetuse":"Residential","geo_point_2d":{"lon":-123.09188312583844,"lat":49.25533553019358}}},{"type":"Feature","geometry":{"coordinates":[[-123.09776706798105,49.26107966824709],[-123.09655846321846,49.259850976382346]],"type":"LineString"},"properties":{"hblock":"300 KINGSWAY","streetuse":"Arterial","geo_point_2d":{"lon":-123.09716276559976,"lat":49.260465322314715}}},{"type":"Feature","geometry":{"coordinates":[[-123.09181429586985,49.25725362601],[-123.0909252304146,49.25721685504075]],"type":"LineString"},"properties":{"hblock":"600 KINGSWAY","streetuse":"Residential","geo_point_2d":{"lon":-123.09136976314223,"lat":49.257235240525375}}},{"type":"Feature","geometry":{"coordinates":[[-123.09105344883962,49.26248980087082],[-123.09106238831065,49.26199242181643]],"type":"LineString"},"properties":{"hblock":"2500 CAROLINA ST","streetuse":"Residential","geo_point_2d":{"lon":-123.09105791857513,"lat":49.26224111134363}}},{"type":"Feature","geometry":{"coordinates":[[-123.17408976306007,49.26101348918154],[-123.17410609535392,49.26056158098977]],"type":"LineString"},"properties":{"hblock":"2800 BALACLAVA ST","streetuse":"Residential","geo_point_2d":{"lon":-123.174097929207,"lat":49.260787535085655}}},{"type":"Feature","geometry":{"coordinates":[[-123.1099721456133,49.21218982064651],[-123.1100134306411,49.21203415387756],[-123.1101063308206,49.210056154361965]],"type":"LineString"},"properties":{"hblock":"8000-8200 MANITOBA ST","streetuse":"Residential","geo_point_2d":{"lon":-123.11005483448794,"lat":49.21112539395097}}},{"type":"Feature","geometry":{"coordinates":[[-123.11900869420018,49.2082229991068],[-123.1190328842738,49.20778797977491]],"type":"LineString"},"properties":{"hblock":"8500 ASH ST","streetuse":"Residential","geo_point_2d":{"lon":-123.119020789237,"lat":49.208005489440865}}},{"type":"Feature","geometry":{"coordinates":[[-123.08794569724536,49.22733713160989],[-123.08725543759714,49.22732819203567]],"type":"LineString"},"properties":{"hblock":"800 E 47TH AV","streetuse":"Residential","geo_point_2d":{"lon":-123.08760056742125,"lat":49.227332661822786}}},{"type":"Feature","geometry":{"coordinates":[[-123.07999848166335,49.226978222646466],[-123.08001169910726,49.22657297691067]],"type":"LineString"},"properties":{"hblock":"6300 INVERNESS ST","streetuse":"Residential","geo_point_2d":{"lon":-123.0800050903853,"lat":49.22677559977856}}},{"type":"Feature","geometry":{"coordinates":[[-123.08803851495638,49.22449211069368],[-123.08804962095877,49.22401800668963]],"type":"LineString"},"properties":{"hblock":"6600 PRINCE ALBERT ST","streetuse":"Residential","geo_point_2d":{"lon":-123.08804406795758,"lat":49.224255058691654}}},{"type":"Feature","geometry":{"coordinates":[[-123.06606227459368,49.21223121351122],[-123.06538479010275,49.21200176945699]],"type":"LineString"},"properties":{"hblock":"2000 FRASERVIEW DRIVE","streetuse":"Residential","geo_point_2d":{"lon":-123.06572353234822,"lat":49.212116491484096}}},{"type":"Feature","geometry":{"coordinates":[[-123.06606227459368,49.21223121351122],[-123.06607727698184,49.211454893792066]],"type":"LineString"},"properties":{"hblock":"7900 VICTORIA DRIVE","streetuse":"Secondary Arterial","geo_point_2d":{"lon":-123.06606977578777,"lat":49.21184305365164}}},{"type":"Feature","geometry":{"coordinates":[[-123.05603335681792,49.24313453228923],[-123.0559270176485,49.2430860455211]],"type":"LineString"},"properties":{"hblock":"2400 ST. LAWRENCE ST","streetuse":"Residential","geo_point_2d":{"lon":-123.05598018723322,"lat":49.24311028890517}}},{"type":"Feature","geometry":{"coordinates":[[-123.06271472121948,49.2427624107267],[-123.06278519092582,49.2426999365093],[-123.0628233255976,49.241505213222474]],"type":"LineString"},"properties":{"hblock":"4700 GLADSTONE ST","streetuse":"Residential","geo_point_2d":{"lon":-123.06280029245914,"lat":49.24214848274887}}},{"type":"Feature","geometry":{"coordinates":[[-123.026385195079,49.24312547128176],[-123.02503878894356,49.2425732565377],[-123.02495011864048,49.24257282595968]],"type":"LineString"},"properties":{"hblock":"3600 MOSCROP ST","streetuse":"Residential","geo_point_2d":{"lon":-123.02567078193975,"lat":49.242833493986254}}},{"type":"Feature","geometry":{"coordinates":[[-123.0375896775779,49.24312241396227],[-123.03706135060793,49.242907031811804]],"type":"LineString"},"properties":{"hblock":"3200 WELLINGTON AV","streetuse":"Residential","geo_point_2d":{"lon":-123.03732551409293,"lat":49.24301472288704}}},{"type":"Feature","geometry":{"coordinates":[[-123.03111854394726,49.243909154547985],[-123.03057628584942,49.243751289041455]],"type":"LineString"},"properties":{"hblock":"3400 TANNER ST","streetuse":"Residential","geo_point_2d":{"lon":-123.03084741489835,"lat":49.243830221794724}}},{"type":"Feature","geometry":{"coordinates":[[-123.0381218861826,49.24334122858817],[-123.0375896775779,49.24312241396227]],"type":"LineString"},"properties":{"hblock":"3200 WELLINGTON AV","streetuse":"Residential","geo_point_2d":{"lon":-123.03785578188025,"lat":49.24323182127522}}},{"type":"Feature","geometry":{"coordinates":[[-123.02545616788915,49.24451429211212],[-123.02495962789355,49.24451225958918]],"type":"LineString"},"properties":{"hblock":"3600 E 29TH AV","streetuse":"Collector","geo_point_2d":{"lon":-123.02520789789135,"lat":49.24451327585065}}},{"type":"Feature","geometry":{"coordinates":[[-123.0339805517545,49.24455762420272],[-123.0333479762044,49.24455313100869]],"type":"LineString"},"properties":{"hblock":"3300 E 29TH AV","streetuse":"Collector","geo_point_2d":{"lon":-123.03366426397945,"lat":49.24455537760571}}},{"type":"Feature","geometry":{"coordinates":[[-123.05008937744073,49.2782723858041],[-123.04932824902069,49.27827166080036]],"type":"LineString"},"properties":{"hblock":"2600 E GEORGIA ST","streetuse":"Residential","geo_point_2d":{"lon":-123.04970881323071,"lat":49.27827202330223}}},{"type":"Feature","geometry":{"coordinates":[[-123.05195925916864,49.279087962702164],[-123.05119912192525,49.27908732153629]],"type":"LineString"},"properties":{"hblock":"2600 TURNER ST","streetuse":"Residential","geo_point_2d":{"lon":-123.05157919054695,"lat":49.27908764211922}}},{"type":"Feature","geometry":{"coordinates":[[-123.11704087427067,49.211856210615636],[-123.11706093143542,49.21140728045352]],"type":"LineString"},"properties":{"hblock":"8000 CAMBIE ST","streetuse":"Arterial","geo_point_2d":{"lon":-123.11705090285304,"lat":49.211631745534575}}},{"type":"Feature","geometry":{"coordinates":[[-123.1189441033207,49.209375587465324],[-123.12034667289181,49.20878588753288]],"type":"LineString"},"properties":{"hblock":"600 SW MARINE DRIVE","streetuse":"Arterial","geo_point_2d":{"lon":-123.11964538810625,"lat":49.209080737499114}}},{"type":"Feature","geometry":{"coordinates":[[-123.12018113641491,49.2123879627326],[-123.12031912027786,49.21239080552059],[-123.1208634817729,49.21236483451877]],"type":"LineString"},"properties":{"hblock":"700 W 64TH AV","streetuse":"Residential","geo_point_2d":{"lon":-123.12052235997042,"lat":49.212380156788655}}},{"type":"Feature","geometry":{"coordinates":[[-123.12023761304216,49.21112687255963],[-123.12091945656175,49.211135920675815]],"type":"LineString"},"properties":{"hblock":"700 W 66TH AV","streetuse":"Residential","geo_point_2d":{"lon":-123.12057853480195,"lat":49.21113139661772}}},{"type":"Feature","geometry":{"coordinates":[[-123.11859924917624,49.211444211052466],[-123.12022152029995,49.21148313871395]],"type":"LineString"},"properties":{"hblock":"500 W 65TH AV","streetuse":"Residential","geo_point_2d":{"lon":-123.1194103847381,"lat":49.211463674883205}}},{"type":"Feature","geometry":{"coordinates":[[-123.12025822510111,49.21067535955209],[-123.12027948189552,49.21022376487632]],"type":"LineString"},"properties":{"hblock":"8100-8200 ASH ST","streetuse":"Residential","geo_point_2d":{"lon":-123.12026885349832,"lat":49.21044956221421}}},{"type":"Feature","geometry":{"coordinates":[[-123.09414359085483,49.216591992584924],[-123.0918258776723,49.216539571788836]],"type":"LineString"},"properties":{"hblock":"500-600 E 59TH AV","streetuse":"Residential","geo_point_2d":{"lon":-123.09298473426358,"lat":49.216565782186876}}},{"type":"Feature","geometry":{"coordinates":[[-123.09784735685878,49.21577204423245],[-123.09715913372129,49.215754094884545]],"type":"LineString"},"properties":{"hblock":"400 E 60TH AV","streetuse":"Residential","geo_point_2d":{"lon":-123.09750324529004,"lat":49.2157630695585}}},{"type":"Feature","geometry":{"coordinates":[[-123.14027345855078,49.21588570502556],[-123.14030226303889,49.215040140427746]],"type":"LineString"},"properties":{"hblock":"7700 GRANVILLE ST","streetuse":"Arterial","geo_point_2d":{"lon":-123.14028786079484,"lat":49.21546292272666}}},{"type":"Feature","geometry":{"coordinates":[[-123.1434985239956,49.21405060960904],[-123.14351295693167,49.21361486003786]],"type":"LineString"},"properties":{"hblock":"7900 ADERA ST","streetuse":"Residential","geo_point_2d":{"lon":-123.14350574046364,"lat":49.21383273482344}}},{"type":"Feature","geometry":{"coordinates":[[-123.07987747172565,49.21332186282047],[-123.07986624163617,49.212854088829125]],"type":"LineString"},"properties":{"hblock":"7800 INVERNESS ST","streetuse":"Residential","geo_point_2d":{"lon":-123.07987185668091,"lat":49.2130879758248}}},{"type":"Feature","geometry":{"coordinates":[[-123.08209282892874,49.211121708919286],[-123.08071237564859,49.21111010635792]],"type":"LineString"},"properties":{"hblock":"1200 SE MARINE DRIVE","streetuse":"Arterial","geo_point_2d":{"lon":-123.08140260228865,"lat":49.21111590763859}}},{"type":"Feature","geometry":{"coordinates":[[-123.08926934532428,49.20807360285288],[-123.08411521301491,49.20850800388234]],"type":"LineString"},"properties":{"hblock":"700-1000 E KENT AV SOUTH","streetuse":"Arterial","geo_point_2d":{"lon":-123.0866922791696,"lat":49.20829080336762}}},{"type":"Feature","geometry":{"coordinates":[[-123.06872686765595,49.21318827729252],[-123.0685837582447,49.21311249613007],[-123.06824938706237,49.21297050572773],[-123.0680389659193,49.21290042167311]],"type":"LineString"},"properties":{"hblock":"7800 JASPER CRESCENT","streetuse":"Residential","geo_point_2d":{"lon":-123.06838745181118,"lat":49.213033622580916}}},{"type":"Feature","geometry":{"coordinates":[[-123.07208560097584,49.21197014853475],[-123.07132471901781,49.2119580184763]],"type":"LineString"},"properties":{"hblock":"1700 E 64TH AV","streetuse":"Residential","geo_point_2d":{"lon":-123.07170515999684,"lat":49.21196408350552}}},{"type":"Feature","geometry":{"coordinates":[[-123.07132037692311,49.20949318644997],[-123.07132674800323,49.20897818418281]],"type":"LineString"},"properties":{"hblock":"8200 ARGYLE ST","streetuse":"Residential","geo_point_2d":{"lon":-123.07132356246316,"lat":49.209235685316386}}},{"type":"Feature","geometry":{"coordinates":[[-123.06370197121754,49.24447514816437],[-123.06411062928203,49.24411128074966]],"type":"LineString"},"properties":{"hblock":"4600 SIDNEY ST","streetuse":"Residential","geo_point_2d":{"lon":-123.06390630024977,"lat":49.24429321445702}}},{"type":"Feature","geometry":{"coordinates":[[-123.05381041137483,49.24335016143664],[-123.05327213315071,49.243122039844515]],"type":"LineString"},"properties":{"hblock":"2500 NORQUAY ST","streetuse":"Residential","geo_point_2d":{"lon":-123.05354127226276,"lat":49.24323610064057}}},{"type":"Feature","geometry":{"coordinates":[[-123.02459253506873,49.22015005443991],[-123.02361376045373,49.22015026766606]],"type":"LineString"},"properties":{"hblock":"3600 HURST AV","streetuse":"Residential","geo_point_2d":{"lon":-123.02410314776122,"lat":49.220150161052985}}},{"type":"Feature","geometry":{"coordinates":[[-123.05468793495547,49.27136222232595],[-123.05469259673947,49.27043106473576]],"type":"LineString"},"properties":{"hblock":"1500 KAMLOOPS ST","streetuse":"Residential","geo_point_2d":{"lon":-123.05469026584747,"lat":49.270896643530854}}},{"type":"Feature","geometry":{"coordinates":[[-123.05203980940097,49.27275860846562],[-123.05204716874805,49.27229259132721]],"type":"LineString"},"properties":{"hblock":"1300 PENTICTON ST","streetuse":"Residential","geo_point_2d":{"lon":-123.0520434890745,"lat":49.27252559989641}}},{"type":"Feature","geometry":{"coordinates":[[-123.04947959962364,49.26851793287956],[-123.04695785452137,49.26851451464075]],"type":"LineString"},"properties":{"hblock":"2700 E 2ND AV","streetuse":"Residential","geo_point_2d":{"lon":-123.04821872707251,"lat":49.26851622376016}}},{"type":"Feature","geometry":{"coordinates":[[-123.04692939771157,49.27042474580744],[-123.04693692228759,49.26999556406362]],"type":"LineString"},"properties":{"hblock":"1600 KASLO ST","streetuse":"Residential","geo_point_2d":{"lon":-123.04693315999958,"lat":49.270210154935526}}},{"type":"Feature","geometry":{"coordinates":[[-123.1363052326403,49.25795242989642],[-123.13662166084616,49.25789562916393],[-123.13681042822907,49.25784835181663],[-123.13718395540731,49.25773133090256],[-123.13745127480628,49.25763395480002],[-123.13763994634664,49.257552854192944],[-123.13779938059452,49.257474720591894],[-123.13796552111195,49.25738188057666],[-123.13821429004342,49.257227531153866]],"type":"LineString"},"properties":{"hblock":"1400 MARPOLE AV","streetuse":"Secondary Arterial","geo_point_2d":{"lon":-123.1372858918002,"lat":49.257657886269904}}},{"type":"Feature","geometry":{"coordinates":[[-123.12001714644349,49.216973137008566],[-123.12316866832765,49.217007698704066]],"type":"LineString"},"properties":{"hblock":"700 W 59TH AV","streetuse":"Residential","geo_point_2d":{"lon":-123.12159290738558,"lat":49.216990417856316}}},{"type":"Feature","geometry":{"coordinates":[[-123.11597292488383,49.21782149306136],[-123.11681946549334,49.21783105657691]],"type":"LineString"},"properties":{"hblock":"400 W 58TH AV","streetuse":"Residential","geo_point_2d":{"lon":-123.11639619518859,"lat":49.21782627481913}}},{"type":"Feature","geometry":{"coordinates":[[-123.13401160141422,49.21927302576334],[-123.137047307503,49.2193116608758]],"type":"LineString"},"properties":{"hblock":"1300 W 57TH AV","streetuse":"Collector","geo_point_2d":{"lon":-123.1355294544586,"lat":49.21929234331957}}},{"type":"Feature","geometry":{"coordinates":[[-123.12251907291214,49.22148381826226],[-123.12248084478612,49.22141890393799],[-123.12243453425727,49.221306458150096],[-123.12240644119407,49.22119148335739],[-123.12239723937624,49.22107994272522],[-123.12240012658043,49.22103679833522]],"type":"LineString"},"properties":{"hblock":"7000 NEAL ST","streetuse":"Residential","geo_point_2d":{"lon":-123.12243638937227,"lat":49.22126631044279}}},{"type":"Feature","geometry":{"coordinates":[[-123.12414725660337,49.209912240522826],[-123.12415036551748,49.20982142072449]],"type":"LineString"},"properties":{"hblock":"8400 HEATHER ST","streetuse":"Residential","geo_point_2d":{"lon":-123.12414881106044,"lat":49.20986683062365}}},{"type":"Feature","geometry":{"coordinates":[[-123.12410552853042,49.211177931638716],[-123.12410997523342,49.21099619503769]],"type":"LineString"},"properties":{"hblock":"8200 HEATHER ST","streetuse":"Residential","geo_point_2d":{"lon":-123.12410775188192,"lat":49.2110870633382}}},{"type":"Feature","geometry":{"coordinates":[[-123.08333352513164,49.26089474960418],[-123.08333992510079,49.26057366098124]],"type":"LineString"},"properties":{"hblock":"2600 WINDSOR ST","streetuse":"Residential","geo_point_2d":{"lon":-123.08333672511623,"lat":49.26073420529271}}},{"type":"Feature","geometry":{"coordinates":[[-123.07974106070735,49.256273547550734],[-123.07975788145733,49.25582140036198]],"type":"LineString"},"properties":{"hblock":"3200 INVERNESS ST","streetuse":"Residential","geo_point_2d":{"lon":-123.07974947108234,"lat":49.25604747395636}}},{"type":"Feature","geometry":{"coordinates":[[-123.08139687513939,49.26101072916312],[-123.0814056696057,49.26055852479242]],"type":"LineString"},"properties":{"hblock":"2600 GLEN DRIVE","streetuse":"Residential","geo_point_2d":{"lon":-123.08140127237255,"lat":49.26078462697777}}},{"type":"Feature","geometry":{"coordinates":[[-123.0836791227201,49.25444494008656],[-123.08370092466257,49.25384765068626]],"type":"LineString"},"properties":{"hblock":"3400 WINDSOR ST","streetuse":"Residential","geo_point_2d":{"lon":-123.08369002369133,"lat":49.254146295386406}}},{"type":"Feature","geometry":{"coordinates":[[-123.08130711429138,49.24996713866184],[-123.08057457146055,49.24995546334246]],"type":"LineString"},"properties":{"hblock":"1100 E 23RD AV","streetuse":"Residential","geo_point_2d":{"lon":-123.08094084287596,"lat":49.249961301002145}}},{"type":"Feature","geometry":{"coordinates":[[-123.18398047478898,49.258907305811405],[-123.18399694926111,49.25845526086525]],"type":"LineString"},"properties":{"hblock":"3100 DUNBAR ST","streetuse":"Arterial","geo_point_2d":{"lon":-123.18398871202504,"lat":49.258681283338326}}},{"type":"Feature","geometry":{"coordinates":[[-123.18670329532365,49.259852778923914],[-123.18794827629029,49.25987204307766]],"type":"LineString"},"properties":{"hblock":"3700 W 14TH AV","streetuse":"Residential","geo_point_2d":{"lon":-123.18732578580698,"lat":49.25986241100078}}},{"type":"Feature","geometry":{"coordinates":[[-123.18188190560224,49.26341618735226],[-123.18189893419982,49.262944775505474]],"type":"LineString"},"properties":{"hblock":"2600 COLLINGWOOD ST","streetuse":"Residential","geo_point_2d":{"lon":-123.18189041990104,"lat":49.26318048142887}}},{"type":"Feature","geometry":{"coordinates":[[-123.183947677425,49.25981173716666],[-123.18396463105206,49.25935903488269]],"type":"LineString"},"properties":{"hblock":"3000 DUNBAR ST","streetuse":"Arterial","geo_point_2d":{"lon":-123.18395615423853,"lat":49.259585386024675}}},{"type":"Feature","geometry":{"coordinates":[[-123.12414725660337,49.209912240522826],[-123.12605349183575,49.20994434009339]],"type":"LineString"},"properties":{"hblock":"800 W 68TH AV","streetuse":"Residential","geo_point_2d":{"lon":-123.12510037421956,"lat":49.209928290308106}}},{"type":"Feature","geometry":{"coordinates":[[-123.13283697283732,49.21302937235926],[-123.13352497271421,49.213039904170294]],"type":"LineString"},"properties":{"hblock":"1200 W 64TH AV","streetuse":"Residential","geo_point_2d":{"lon":-123.13318097277575,"lat":49.21303463826478}}},{"type":"Feature","geometry":{"coordinates":[[-123.136910351309,49.21309081243077],[-123.1376477968637,49.21310134202611]],"type":"LineString"},"properties":{"hblock":"1300 W 64TH AV","streetuse":"Residential","geo_point_2d":{"lon":-123.13727907408635,"lat":49.21309607722844}}},{"type":"Feature","geometry":{"coordinates":[[-123.14359720302888,49.211418034098315],[-123.14360556294281,49.21098606988708]],"type":"LineString"},"properties":{"hblock":"8300 ADERA ST","streetuse":"Residential","geo_point_2d":{"lon":-123.14360138298585,"lat":49.21120205199269}}},{"type":"Feature","geometry":{"coordinates":[[-123.136910351309,49.21309081243077],[-123.13692801553104,49.21266569222681]],"type":"LineString"},"properties":{"hblock":"8000-8200 HAIG ST","streetuse":"Residential","geo_point_2d":{"lon":-123.13691918342002,"lat":49.21287825232879}}},{"type":"Feature","geometry":{"coordinates":[[-123.11118801933351,49.25680938703324],[-123.11248594393861,49.25684216856934]],"type":"LineString"},"properties":{"hblock":"300 W 16TH AV","streetuse":"Secondary Arterial","geo_point_2d":{"lon":-123.11183698163606,"lat":49.256825777801296}}},{"type":"Feature","geometry":{"coordinates":[[-123.11380305946834,49.22690510573061],[-123.11462857003396,49.22693570098751]],"type":"LineString"},"properties":{"hblock":"300 W 48TH AV","streetuse":"Residential","geo_point_2d":{"lon":-123.11421581475115,"lat":49.22692040335906}}},{"type":"Feature","geometry":{"coordinates":[[-123.1209477978294,49.22355727392292],[-123.12163690652456,49.22344629533831]],"type":"LineString"},"properties":{"hblock":"700 W 52ND AV","streetuse":"Residential","geo_point_2d":{"lon":-123.12129235217698,"lat":49.22350178463062}}},{"type":"Feature","geometry":{"coordinates":[[-123.11810796427079,49.22526114556992],[-123.11812534405077,49.22481438686556]],"type":"LineString"},"properties":{"hblock":"6600-6700 ASH ST","streetuse":"Residential","geo_point_2d":{"lon":-123.11811665416079,"lat":49.22503776621774}}},{"type":"Feature","geometry":{"coordinates":[[-123.12225352197177,49.225415347235725],[-123.12293556121239,49.22544050279183]],"type":"LineString"},"properties":{"hblock":"700 W 50TH AV","streetuse":"Residential","geo_point_2d":{"lon":-123.12259454159208,"lat":49.225427925013776}}},{"type":"Feature","geometry":{"coordinates":[[-123.12680884920077,49.22731969048426],[-123.12680066879935,49.227278860966486],[-123.12678766728594,49.22722180928338],[-123.12677377607181,49.227160566781656],[-123.12676151890115,49.22709916956505],[-123.12675090957147,49.22703764460473],[-123.12674196238632,49.226976216767056]],"type":"LineString"},"properties":{"hblock":"6400 FREMLIN ST","streetuse":"Residential","geo_point_2d":{"lon":-123.12677303978917,"lat":49.227148394250236}}},{"type":"Feature","geometry":{"coordinates":[[-123.12826277779922,49.22839238955657],[-123.12829348514046,49.227483833912224]],"type":"LineString"},"properties":{"hblock":"6300 OAK ST","streetuse":"Arterial","geo_point_2d":{"lon":-123.12827813146984,"lat":49.227938111734396}}},{"type":"Feature","geometry":{"coordinates":[[-123.0736308435801,49.26235016249481],[-123.07363955914721,49.26185251509479]],"type":"LineString"},"properties":{"hblock":"2500 WOODLAND DRIVE","streetuse":"Residential","geo_point_2d":{"lon":-123.07363520136366,"lat":49.2621013387948}}},{"type":"Feature","geometry":{"coordinates":[[-123.07784572669405,49.25533974233322],[-123.07591596869722,49.25530906644214]],"type":"LineString"},"properties":{"hblock":"1300 E 17TH AV","streetuse":"Residential","geo_point_2d":{"lon":-123.07688084769563,"lat":49.25532440438768}}},{"type":"Feature","geometry":{"coordinates":[[-123.06848727383672,49.21622382326338],[-123.06849615879251,49.21577713941792]],"type":"LineString"},"properties":{"hblock":"7500-7600 THORNHILL DRIVE","streetuse":"Residential","geo_point_2d":{"lon":-123.0684917163146,"lat":49.21600048134065}}},{"type":"Feature","geometry":{"coordinates":[[-123.07066120702159,49.21626723840044],[-123.070373305761,49.21626240378731],[-123.06985244122438,49.21609550670001]],"type":"LineString"},"properties":{"hblock":"1700 E 59TH AV","streetuse":"Residential","geo_point_2d":{"lon":-123.07025233914266,"lat":49.216208569098875}}},{"type":"Feature","geometry":{"coordinates":[[-123.036694280053,49.20583682375913],[-123.03670574348705,49.205373220615144]],"type":"LineString"},"properties":{"hblock":"8600 KINROSS ST","streetuse":"Residential","geo_point_2d":{"lon":-123.03670001177001,"lat":49.205605022187136}}},{"type":"Feature","geometry":{"coordinates":[[-123.06578923279781,49.267760416565004],[-123.06438365861952,49.26774975744833]],"type":"LineString"},"properties":{"hblock":"1900 E 3RD AV","streetuse":"Residential","geo_point_2d":{"lon":-123.06508644570866,"lat":49.267755087006655}}},{"type":"Feature","geometry":{"coordinates":[[-123.06702133559473,49.27048034145528],[-123.06638374002628,49.27047731834218]],"type":"LineString"},"properties":{"hblock":"1800 GRAVELEY ST","streetuse":"Residential","geo_point_2d":{"lon":-123.0667025378105,"lat":49.270478829898735}}},{"type":"Feature","geometry":{"coordinates":[[-123.06512410015647,49.272103223594456],[-123.06377186435083,49.27209226609034]],"type":"LineString"},"properties":{"hblock":"1900 KITCHENER ST","streetuse":"Residential","geo_point_2d":{"lon":-123.06444798225367,"lat":49.2720977448424}}},{"type":"Feature","geometry":{"coordinates":[[-123.06575354571105,49.26956824652896],[-123.06382128252582,49.26955432599038]],"type":"LineString"},"properties":{"hblock":"1900 E 1ST AV","streetuse":"Arterial","geo_point_2d":{"lon":-123.06478741411843,"lat":49.26956128625967}}},{"type":"Feature","geometry":{"coordinates":[[-123.06188790602859,49.26953963612875],[-123.05995391163314,49.26952455442932]],"type":"LineString"},"properties":{"hblock":"2100 E 1ST AV","streetuse":"Arterial","geo_point_2d":{"lon":-123.06092090883087,"lat":49.26953209527903}}},{"type":"Feature","geometry":{"coordinates":[[-123.05993508841357,49.27042857224319],[-123.05994589659117,49.26997757458925]],"type":"LineString"},"properties":{"hblock":"1600 TEMPLETON DRIVE","streetuse":"Residential","geo_point_2d":{"lon":-123.05994049250236,"lat":49.27020307341622}}},{"type":"Feature","geometry":{"coordinates":[[-123.05658545674079,49.27136189333236],[-123.05658301861544,49.271189294775496]],"type":"LineString"},"properties":{"hblock":"1400 NANAIMO ST","streetuse":"Arterial","geo_point_2d":{"lon":-123.05658423767811,"lat":49.27127559405393}}},{"type":"Feature","geometry":{"coordinates":[[-123.05796196421758,49.27250156741355],[-123.05796157063538,49.272048299945574]],"type":"LineString"},"properties":{"hblock":"1300 GARDEN DRIVE","streetuse":"Residential","geo_point_2d":{"lon":-123.05796176742649,"lat":49.27227493367956}}},{"type":"Feature","geometry":{"coordinates":[[-123.05791414440095,49.274761587575576],[-123.0579244472418,49.274308656741155]],"type":"LineString"},"properties":{"hblock":"1100 GARDEN DRIVE","streetuse":"Residential","geo_point_2d":{"lon":-123.05791929582138,"lat":49.27453512215837}}},{"type":"Feature","geometry":{"coordinates":[[-123.06384651601155,49.26819783645034],[-123.0638561046208,49.26774582246718]],"type":"LineString"},"properties":{"hblock":"1800 SEMLIN DRIVE","streetuse":"Residential","geo_point_2d":{"lon":-123.06385131031618,"lat":49.26797182945876}}},{"type":"Feature","geometry":{"coordinates":[[-123.06383784822539,49.268649858883585],[-123.06384651601155,49.26819783645034]],"type":"LineString"},"properties":{"hblock":"1800 SEMLIN DRIVE","streetuse":"Residential","geo_point_2d":{"lon":-123.06384218211846,"lat":49.268423847666966}}},{"type":"Feature","geometry":{"coordinates":[[-123.17413879882216,49.25965734165868],[-123.17607424229985,49.259687402802676]],"type":"LineString"},"properties":{"hblock":"3100 W 14TH AV","streetuse":"Residential","geo_point_2d":{"lon":-123.175106520561,"lat":49.25967237223068}}},{"type":"Feature","geometry":{"coordinates":[[-123.13601631385988,49.28002436217762],[-123.13654835648317,49.27967227492515]],"type":"LineString"},"properties":{"hblock":"1300 BUTE ST","streetuse":"Residential","geo_point_2d":{"lon":-123.13628233517154,"lat":49.279848318551394}}},{"type":"Feature","geometry":{"coordinates":[[-123.09263323511149,49.224539079943646],[-123.09199443048871,49.22452886807917]],"type":"LineString"},"properties":{"hblock":"500-600 E 50TH AV","streetuse":"Residential","geo_point_2d":{"lon":-123.09231383280012,"lat":49.2245339740114}}},{"type":"Feature","geometry":{"coordinates":[[-123.08131551092141,49.2290650131343],[-123.08062305824697,49.22905605346229]],"type":"LineString"},"properties":{"hblock":"1200 E 45TH AV","streetuse":"Residential","geo_point_2d":{"lon":-123.08096928458421,"lat":49.22906053329829}}},{"type":"Feature","geometry":{"coordinates":[[-123.08138652069363,49.275907691948404],[-123.07999794994885,49.27588749597286]],"type":"LineString"},"properties":{"hblock":"1100 PARKER ST","streetuse":"Residential","geo_point_2d":{"lon":-123.08069223532124,"lat":49.27589759396063}}},{"type":"Feature","geometry":{"coordinates":[[-123.09945292855387,49.23113836069202],[-123.09945202702828,49.23068924628384]],"type":"LineString"},"properties":{"hblock":"5900 SOPHIA ST","streetuse":"Residential","geo_point_2d":{"lon":-123.09945247779108,"lat":49.23091380348793}}},{"type":"Feature","geometry":{"coordinates":[[-123.0984888946666,49.274896004392225],[-123.09855996340778,49.274471505832274],[-123.09864497912926,49.27256197029698]],"type":"LineString"},"properties":{"hblock":"1100-1200 STATION ST","streetuse":"Residential","geo_point_2d":{"lon":-123.09858812785566,"lat":49.27373122459387}}},{"type":"Feature","geometry":{"coordinates":[[-123.07009962179158,49.2757569372649],[-123.0695131255573,49.27575213734434]],"type":"LineString"},"properties":{"hblock":"1600 PARKER ST","streetuse":"Residential","geo_point_2d":{"lon":-123.06980637367444,"lat":49.27575453730462}}},{"type":"Feature","geometry":{"coordinates":[[-123.07345736243154,49.271441928093324],[-123.07152231289423,49.271426042223915]],"type":"LineString"},"properties":{"hblock":"1500 GRANT ST","streetuse":"Residential","geo_point_2d":{"lon":-123.07248983766289,"lat":49.27143398515862}}},{"type":"Feature","geometry":{"coordinates":[[-123.07155638813505,49.26961806810565],[-123.06962166815637,49.26959964054864]],"type":"LineString"},"properties":{"hblock":"1600 E 1ST AV","streetuse":"Arterial","geo_point_2d":{"lon":-123.07058902814572,"lat":49.269608854327146}}},{"type":"Feature","geometry":{"coordinates":[[-123.07582772015355,49.276283442482],[-123.07584144125288,49.275826433083175]],"type":"LineString"},"properties":{"hblock":"900 ODLUM DRIVE","streetuse":"Residential","geo_point_2d":{"lon":-123.07583458070322,"lat":49.27605493778259}}},{"type":"Feature","geometry":{"coordinates":[[-123.07538640528415,49.271493514380374],[-123.07539577755503,49.2710224480044]],"type":"LineString"},"properties":{"hblock":"1500 MCLEAN DRIVE","streetuse":"Residential","geo_point_2d":{"lon":-123.07539109141959,"lat":49.27125798119239}}},{"type":"Feature","geometry":{"coordinates":[[-123.07584144125288,49.275826433083175],[-123.07493424477714,49.27581326233618]],"type":"LineString"},"properties":{"hblock":"1400 PARKER ST","streetuse":"Residential","geo_point_2d":{"lon":-123.07538784301501,"lat":49.27581984770968}}},{"type":"Feature","geometry":{"coordinates":[[-123.06761463548759,49.27393013734687],[-123.06762092709658,49.27347409558167]],"type":"LineString"},"properties":{"hblock":"1200 SALSBURY DRIVE","streetuse":"Residential","geo_point_2d":{"lon":-123.06761778129207,"lat":49.273702116464264}}},{"type":"Feature","geometry":{"coordinates":[[-123.10469539505354,49.267837847824815],[-123.10471358623758,49.26738577758166]],"type":"LineString"},"properties":{"hblock":"1900 ONTARIO ST","streetuse":"Residential","geo_point_2d":{"lon":-123.10470449064556,"lat":49.26761181270324}}},{"type":"Feature","geometry":{"coordinates":[[-123.1147566913882,49.26496547110409],[-123.11476137537481,49.26485747002876]],"type":"LineString"},"properties":{"hblock":"2200 CAMBIE ST","streetuse":"Arterial","geo_point_2d":{"lon":-123.1147590333815,"lat":49.264911470566425}}},{"type":"Feature","geometry":{"coordinates":[[-123.11278689598976,49.26572553547847],[-123.11280708722796,49.26527312000682]],"type":"LineString"},"properties":{"hblock":"2200 YUKON ST","streetuse":"Residential","geo_point_2d":{"lon":-123.11279699160886,"lat":49.265499327742646}}},{"type":"Feature","geometry":{"coordinates":[[-123.11085140859305,49.26569015047239],[-123.11087316663239,49.26523591680595]],"type":"LineString"},"properties":{"hblock":"2200 ALBERTA ST","streetuse":"Residential","geo_point_2d":{"lon":-123.1108622876127,"lat":49.265463033639165}}},{"type":"Feature","geometry":{"coordinates":[[-123.1240860422655,49.266210065712116],[-123.1264845224823,49.266247619567515]],"type":"LineString"},"properties":{"hblock":"900 CHARLESON","streetuse":"Residential","geo_point_2d":{"lon":-123.12528528237391,"lat":49.26622884263982}}},{"type":"Feature","geometry":{"coordinates":[[-123.11969465949628,49.267628213308384],[-123.11940195518031,49.26736513668838]],"type":"LineString"},"properties":{"hblock":"600 LEG-IN-BOOT SQUARE","streetuse":"Residential","geo_point_2d":{"lon":-123.11954830733829,"lat":49.267496674998384}}},{"type":"Feature","geometry":{"coordinates":[[-123.11940195518031,49.26736513668838],[-123.11942819523775,49.26665308541815]],"type":"LineString"},"properties":{"hblock":"600 MARKET HILL","streetuse":"Residential","geo_point_2d":{"lon":-123.11941507520902,"lat":49.26700911105327}}},{"type":"Feature","geometry":{"coordinates":[[-123.10676081043115,49.2647095045575],[-123.1094432083651,49.26475593777862]],"type":"LineString"},"properties":{"hblock":"100 W 7TH AV","streetuse":"Collector","geo_point_2d":{"lon":-123.10810200939814,"lat":49.26473272116806}}},{"type":"Feature","geometry":{"coordinates":[[-123.10169084423273,49.26461666892953],[-123.10088823608719,49.264602161647126]],"type":"LineString"},"properties":{"hblock":"100 E 7TH AV","streetuse":"Collector","geo_point_2d":{"lon":-123.10128954015997,"lat":49.26460941528833}}},{"type":"Feature","geometry":{"coordinates":[[-123.13940373144608,49.293341049799054],[-123.14024894382486,49.293200835967475]],"type":"LineString"},"properties":{"hblock":"800 LAGOON DRIVE","streetuse":"Residential","geo_point_2d":{"lon":-123.13982633763547,"lat":49.29327094288327}}},{"type":"Feature","geometry":{"coordinates":[[-123.13437161264,49.29218041017314],[-123.13594497024789,49.29319891816215]],"type":"LineString"},"properties":{"hblock":"1800 ALBERNI ST","streetuse":"Residential","geo_point_2d":{"lon":-123.13515829144394,"lat":49.29268966416764}}},{"type":"Feature","geometry":{"coordinates":[[-123.10584773294453,49.22855283812373],[-123.10647137533017,49.22856363501979]],"type":"LineString"},"properties":{"hblock":"0 W 46TH AV","streetuse":"Residential","geo_point_2d":{"lon":-123.10615955413735,"lat":49.22855823657176}}},{"type":"Feature","geometry":{"coordinates":[[-123.06579212351703,49.223141243764104],[-123.06580665625658,49.222615893825584]],"type":"LineString"},"properties":{"hblock":"6700 VICTORIA DRIVE","streetuse":"Secondary Arterial","geo_point_2d":{"lon":-123.06579938988679,"lat":49.22287856879484}}},{"type":"Feature","geometry":{"coordinates":[[-123.06570540178745,49.22630397447831],[-123.0657242664965,49.22560553550721]],"type":"LineString"},"properties":{"hblock":"6400 VICTORIA DRIVE","streetuse":"Secondary Arterial","geo_point_2d":{"lon":-123.06571483414196,"lat":49.22595475499276}}},{"type":"Feature","geometry":{"coordinates":[[-123.0869891432141,49.219906091560986],[-123.0852121535182,49.219879521733304]],"type":"LineString"},"properties":{"hblock":"800-900 E 55TH AV","streetuse":"Residential","geo_point_2d":{"lon":-123.08610064836614,"lat":49.219892806647145}}},{"type":"Feature","geometry":{"coordinates":[[-123.05143971679904,49.218951935871495],[-123.05126682748255,49.21895143703459]],"type":"LineString"},"properties":{"hblock":"2700 E 56TH AV","streetuse":"Residential","geo_point_2d":{"lon":-123.0513532721408,"lat":49.21895168645303}}},{"type":"Feature","geometry":{"coordinates":[[-123.0505543414167,49.22021411170028],[-123.0505532393224,49.21976639048505]],"type":"LineString"},"properties":{"hblock":"7000-7100 VIVIAN DRIVE","streetuse":"Residential","geo_point_2d":{"lon":-123.05055379036955,"lat":49.21999025109267}}},{"type":"Feature","geometry":{"coordinates":[[-123.04558511029309,49.21881020039965],[-123.0454368922365,49.21871322677196],[-123.04519275371034,49.21858387155023],[-123.04492931120275,49.21847194716694],[-123.04476755331758,49.218418038321325]],"type":"LineString"},"properties":{"hblock":"2900 E 56TH AV","streetuse":"Residential","geo_point_2d":{"lon":-123.04518581442522,"lat":49.218594498395085}}},{"type":"Feature","geometry":{"coordinates":[[-123.04052887029562,49.22115456194192],[-123.03960575666129,49.22114738907182]],"type":"LineString"},"properties":{"hblock":"3100 E 53RD AV","streetuse":"Residential","geo_point_2d":{"lon":-123.04006731347846,"lat":49.22115097550687}}}]}